{
"type": "FeatureCollection",
"name": "Kensington_pubsFinal",
"features": [
{ "type": "Feature", "properties": { "name": "Admiral Codrington", "add": "17 Mossop Street, LONDON", "postcode": "SW3 2LY", "owner": "Inda pubs", "status": "open", "col5": "527415", "col6": "178803", "lat": 51.493823, "long": -0.166008, "city": "Kensington and Chelsea", "notes": "", "website": "linkedin.com/posts/stuart-hills-07042b13_james-corbett-inda-pubs-ltd-acquires-the-activity-7345688412659544064-ZKx4", "history": "" }, "geometry": { "type": "Point", "coordinates": [ -0.166008, 51.493823 ] } },
{ "type": "Feature", "properties": { "name": "Anglesea Arms", "add": "Public House 15 Selwood Terrace, Onslow Gardens, LONDON", "postcode": "SW7 3QG", "owner": "Greene King", "status": "open", "col5": "526651", "col6": "178388", "lat": 51.490264, "long": -0.177155, "city": "Kensington and Chelsea", "notes": "", "website": "https://camra.org.uk/pubs/anglesea-arms-south-kensington-128669", "history": "" }, "geometry": { "type": "Point", "coordinates": [ -0.177155, 51.490264 ] } },
{ "type": "Feature", "properties": { "name": "Antelope", "add": "PUBLIC HOUSE, 22-24 Eaton Terrace, LONDON", "postcode": "SW1W 8EZ", "owner": "Ineos London Property Holdings Ltd", "status": "open", "col5": "528118", "col6": "178862", "lat": 51.494194, "long": -0.155865, "city": "Kensington and Chelsea", "notes": "", "website": "https://camra.org.uk/pubs/antelope-london-128649", "history": "" }, "geometry": { "type": "Point", "coordinates": [ -0.155865, 51.494194 ] } },
{ "type": "Feature", "properties": { "name": "Beaufort House", "add": "354 King's Road, LONDON", "postcode": "SW3 5UZ", "owner": "Independent", "status": "open", "col5": "526697", "col6": "177716", "lat": 51.484206, "long": -0.176735, "city": "Kensington and Chelsea", "notes": "", "website": "https://find-and-update.company-information.service.gov.uk/officers/yPDED7ViTjQVzsrLIpV6CQBe6F4/appointments", "history": "" }, "geometry": { "type": "Point", "coordinates": [ -0.176735, 51.484206 ] } },
{ "type": "Feature", "properties": { "name": "Bertie Blossoms", "add": "323 Portobello Road, LONDON", "postcode": "W10 5SY", "owner": "Not a pub", "status": "open", "col5": "524321", "col6": "181729", "lat": 51.520807, "long": -0.209522, "city": "Kensington and Chelsea", "notes": "", "website": "", "history": "" }, "geometry": { "type": "Point", "coordinates": [ -0.209522, 51.520807 ] } },
{ "type": "Feature", "properties": { "name": "Blackbird", "add": "Public House, 209-211 Earl's Court Road, LONDON", "postcode": "SW5 9AN", "owner": "Fuller, Smith & Turner ", "status": "open", "col5": "525599", "col6": "178553", "lat": 51.491981, "long": -0.192241, "city": "Kensington and Chelsea", "notes": "Confidence: Medium. Appears in the Brewery History Society's Fuller's estate list: https://breweryhistory.com/wiki/index.php/List_of_Fuller%2C_Smith_%26_Turner_Ltd_pubs", "website": "https://www.allinlondon.co.uk/directory/store-finders/20-fullers-pubs", "history": "" }, "geometry": { "type": "Point", "coordinates": [ -0.192241, 51.491981 ] } },
{ "type": "Feature", "properties": { "name": "Builders Arms PH", "add": "Public House, 13 Britten Street, LONDON", "postcode": "SW3 3TY", "owner": "Cubitt House (Young's)", "status": "open", "col5": "527305", "col6": "178273", "lat": 51.489075, "long": -0.167782, "city": "Kensington and Chelsea", "notes": "", "website": "", "history": "" }, "geometry": { "type": "Point", "coordinates": [ -0.167782, 51.489075 ] } },
{ "type": "Feature", "properties": { "name": "Bunch of Grapes", "add": "Public House, 207 Brompton Road, LONDON", "postcode": "SW3 1LA", "owner": "Greene King", "status": "open", "col5": "527348", "col6": "179211", "lat": 51.497504, "long": -0.166825, "city": "Kensington and Chelsea", "notes": "", "website": "", "history": "" }, "geometry": { "type": "Point", "coordinates": [ -0.166825, 51.497504 ] } },
{ "type": "Feature", "properties": { "name": "Castle PH", "add": "Public House, 100 Holland Park Avenue, LONDON", "postcode": "W11 4UA", "owner": "Mitchell and Butlers", "status": "open", "col5": "524491", "col6": "180178", "lat": 51.50683, "long": -0.207634, "city": "Kensington and Chelsea", "notes": "", "website": "", "history": "" }, "geometry": { "type": "Point", "coordinates": [ -0.207634, 51.50683 ] } },
{ "type": "Feature", "properties": { "name": "Chelsea Pensioner", "add": "Public House, 358 Fulham Road, LONDON", "postcode": "SW10 9UU", "owner": "Independent", "status": "open", "col5": "525936", "col6": "177399", "lat": 51.481526, "long": -0.187801, "city": "Kensington and Chelsea", "notes": "", "website": "", "history": "" }, "geometry": { "type": "Point", "coordinates": [ -0.187801, 51.481526 ] } },
{ "type": "Feature", "properties": { "name": "Chelsea Pensioners Club", "add": "Royal Hospital, Royal Hospital Road, LONDON", "postcode": "SW3 4SR", "owner": "Private ", "status": "open", "col5": "527912", "col6": "178044", "lat": 51.486889, "long": -0.159127, "city": "Kensington and Chelsea", "notes": "", "website": "", "history": "" }, "geometry": { "type": "Point", "coordinates": [ -0.159127, 51.486889 ] } },
{ "type": "Feature", "properties": { "name": "Chelsea Potter", "add": "Public House, 119 King's Road, LONDON", "postcode": "SW3 4PL", "owner": "Greene King", "status": "open", "col5": "527422", "col6": "178192", "lat": 51.48833, "long": -0.166127, "city": "Kensington and Chelsea", "notes": "", "website": "", "history": "" }, "geometry": { "type": "Point", "coordinates": [ -0.166127, 51.48833 ] } },
{ "type": "Feature", "properties": { "name": "Chelsea Ram PH", "add": "Public House, 32 Burnaby Street, LONDON", "postcode": "SW10 0PL", "owner": "Young's", "status": "open", "col5": "526284", "col6": "177139", "lat": 51.479121, "long": -0.182885, "city": "Kensington and Chelsea", "notes": "", "website": "https://camra.org.uk/pubs/chelsea-ram-chelsea-128976", "history": "" }, "geometry": { "type": "Point", "coordinates": [ -0.182885, 51.479121 ] } },
{ "type": "Feature", "properties": { "name": "Chilled Eskimo", "add": "Public House, 48 Southern Row, LONDON", "postcode": "W10 5AN", "owner": "Independent", "status": "CLOSED", "col5": "524181", "col6": "182179", "lat": 51.524881, "long": -0.21138, "city": "Kensington and Chelsea", "notes": "", "website": "https://www.fullers.co.uk/blog/pubs-articles/churchill-arms-manager-james-keogh", "history": "" }, "geometry": { "type": "Point", "coordinates": [ -0.21138, 51.524881 ] } },
{ "type": "Feature", "properties": { "name": "Churchill Arms", "add": "PUBLIC HOUSE, 119 Kensington Church Street, LONDON", "postcode": "W8 7LN", "owner": "Fuller, Smith & Turner ", "status": "", "col5": "525384", "col6": "180170", "lat": 51.506561, "long": -0.194762, "city": "Kensington and Chelsea", "notes": "Confidence: High. Pub's own site (https://www.churchillarmskensington.co.uk/) is Fuller's-branded; past winner of the Fuller's Griffin Award.", "website": "https://camra.org.uk/pubs/churchill-arms-kensington-128651", "history": "" }, "geometry": { "type": "Point", "coordinates": [ -0.194762, 51.506561 ] } },
{ "type": "Feature", "properties": { "name": "Coco Momo", "add": "Public House, 25 Gloucester Road, LONDON", "postcode": "SW7 4PL", "owner": "Urban pubs and bars", "status": "CLOSED", "col5": "526182", "col6": "179251", "lat": 51.498116, "long": -0.183599, "city": "Kensington and Chelsea", "notes": "", "website": "", "history": "" }, "geometry": { "type": "Point", "coordinates": [ -0.183599, 51.498116 ] } },
{ "type": "Feature", "properties": { "name": "Coronet Cinema and Print Room at the Coronet", "add": "103-111 Notting Hill Gate, LONDON", "postcode": "W11 3LB", "owner": "", "status": "", "col5": "525090", "col6": "180378", "lat": 51.508496, "long": -0.198923, "city": "Kensington and Chelsea", "notes": "", "website": "", "history": "" }, "geometry": { "type": "Point", "coordinates": [ -0.198923, 51.508496 ] } },
{ "type": "Feature", "properties": { "name": "Courtfield Public House", "add": "Public House, 187 Earl's Court Road, LONDON", "postcode": "SW5 9AN", "owner": "Greene King", "status": "", "col5": "525599", "col6": "178553", "lat": 51.491981, "long": -0.192241, "city": "Kensington and Chelsea", "notes": "Confidence: Low. Third-party directory (agifors.org) gives greeneking-pubs.co.uk as the pub website; needs confirming on Greene King's own pub finder. https://agifors.org/Local-Pubs-Kensington", "website": "", "history": "" }, "geometry": { "type": "Point", "coordinates": [ -0.192241, 51.491981 ] } },
{ "type": "Feature", "properties": { "name": "Cross Keys", "add": "Public House, 2 Lawrence Street, LONDON", "postcode": "SW3 5NB", "owner": "", "status": "", "col5": "527099", "col6": "177676", "lat": 51.483756, "long": -0.170962, "city": "Kensington and Chelsea", "notes": "", "website": "", "history": "" }, "geometry": { "type": "Point", "coordinates": [ -0.170962, 51.483756 ] } },
{ "type": "Feature", "properties": { "name": "Crown and Sceptre", "add": "PUBLIC HOUSE, 34 Holland Road, LONDON", "postcode": "W14 8BA", "owner": "", "status": "", "col5": "524559", "col6": "179156", "lat": 51.49763, "long": -0.207001, "city": "Kensington and Chelsea", "notes": "", "website": "", "history": "" }, "geometry": { "type": "Point", "coordinates": [ -0.207001, 51.49763 ] } },
{ "type": "Feature", "properties": { "name": "Devonshire Arms", "add": "Public House  The, 37 Marloes Road, LONDON", "postcode": "W8 6LA", "owner": "Mitchell and Butlers", "status": "", "col5": "525553", "col6": "179119", "lat": 51.497078, "long": -0.192702, "city": "Kensington and Chelsea", "notes": "Confidence: High. CAMRA London Drinker WhatPub update lists 'W8, DEVONSHIRE ARMS (M&B), 37 Marloes Rd'.", "website": "https://londondrinker.camra.org.uk/wordpress/index.php/2022/07/25/whatpub-update-51/", "history": "" }, "geometry": { "type": "Point", "coordinates": [ -0.192702, 51.497078 ] } },
{ "type": "Feature", "properties": { "name": "Drayton Arms", "add": "153 Old Brompton Road, LONDON", "postcode": "SW5 0LJ", "owner": "", "status": "", "col5": "526203", "col6": "178420", "lat": 51.490652, "long": -0.183594, "city": "Kensington and Chelsea", "notes": "", "website": "", "history": "" }, "geometry": { "type": "Point", "coordinates": [ -0.183594, 51.490652 ] } },
{ "type": "Feature", "properties": { "name": "Drop Kensington", "add": "37 Earl's Court Road, LONDON", "postcode": "W8 6ED", "owner": "", "status": "", "col5": "525220", "col6": "179179", "lat": 51.497692, "long": -0.197483, "city": "Kensington and Chelsea", "notes": "", "website": "", "history": "" }, "geometry": { "type": "Point", "coordinates": [ -0.197483, 51.497692 ] } },
{ "type": "Feature", "properties": { "name": "Duke of Clarence", "add": "148 Old Brompton Road, LONDON", "postcode": "SW5 0BE", "owner": "Young's", "status": "", "col5": "526265", "col6": "178458", "lat": 51.49098, "long": -0.182688, "city": "Kensington and Chelsea", "notes": "Confidence: Medium. Address (Old Brompton Road, SW5) not fully verified. Listed as 'The Duke of Clarence, Kensington' on Young's own venue round-up page. Secondary: https://www.designmynight.com/london/pubs/kensington/pubs-in-kensington", "website": "https://www.youngs.co.uk/pubs-to-watch-the-six-nations-in-west-london", "history": "" }, "geometry": { "type": "Point", "coordinates": [ -0.182688, 51.49098 ] } },
{ "type": "Feature", "properties": { "name": "Duke of Wellington PH", "add": "179 Portobello Road, LONDON", "postcode": "W11 2ED", "owner": "Young's", "status": "", "col5": "524642", "col6": "181151", "lat": 51.515542, "long": -0.205102, "city": "Kensington and Chelsea", "notes": "Confidence: High. Brewery History Society records Young's ownership since 1991: https://breweryhistory.com/wiki/index.php/List_of_Youngs_of_Wandsworth_pubs", "website": "https://www.youngs.co.uk/pubs-to-watch-the-six-nations-in-west-london", "history": "" }, "geometry": { "type": "Point", "coordinates": [ -0.205102, 51.515542 ] } },
{ "type": "Feature", "properties": { "name": "Earl of Lonsdale", "add": "Public House, 277-281 Westbourne Grove, LONDON", "postcode": "W11 2QA", "owner": "", "status": "", "col5": "524819", "col6": "180925", "lat": 51.513473, "long": -0.202639, "city": "Kensington and Chelsea", "notes": "", "website": "", "history": "" }, "geometry": { "type": "Point", "coordinates": [ -0.202639, 51.513473 ] } },
{ "type": "Feature", "properties": { "name": "Elephant & Castle", "add": "Public House, 40-42 Holland Street, LONDON", "postcode": "W8 4LT", "owner": "Mitchell and Butlers", "status": "", "col5": "525529", "col6": "179802", "lat": 51.503222, "long": -0.192805, "city": "Kensington and Chelsea", "notes": "Confidence: High. Brand: Nicholson's — featured on Nicholson's own-venues page as 'our pub in Kensington'.", "website": "https://www.nicholsonspubs.co.uk/ourvenues", "history": "" }, "geometry": { "type": "Point", "coordinates": [ -0.192805, 51.503222 ] } },
{ "type": "Feature", "properties": { "name": "Fox & Pheasant PH", "add": "Public House, 1 Billing Road, LONDON", "postcode": "SW10 9UJ", "owner": "James Blunt", "status": "", "col5": "525918", "col6": "177461", "lat": 51.482088, "long": -0.188038, "city": "Kensington and Chelsea", "notes": "", "website": "", "history": "" }, "geometry": { "type": "Point", "coordinates": [ -0.188038, 51.482088 ] } },
{ "type": "Feature", "properties": { "name": "Garden Bar and Grill", "add": "41 Bramley Road, LONDON", "postcode": "W10 6SZ", "owner": "Independent", "status": "", "col5": "523754", "col6": "180786", "lat": 51.512456, "long": -0.218021, "city": "Kensington and Chelsea", "notes": "", "website": "", "history": "" }, "geometry": { "type": "Point", "coordinates": [ -0.218021, 51.512456 ] } },
{ "type": "Feature", "properties": { "name": "Gloucester Arms", "add": "Public House, 34 Gloucester Road, LONDON", "postcode": "SW7 4RB", "owner": "Greene King", "status": "", "col5": "526151", "col6": "179366", "lat": 51.499156, "long": -0.184004, "city": "Kensington and Chelsea", "notes": "Ex-Taylor Walker.", "website": "https://www.greeneking.co.uk/pubs/greater-london/gloucester-arms", "history": "" }, "geometry": { "type": "Point", "coordinates": [ -0.184004, 51.499156 ] } },
{ "type": "Feature", "properties": { "name": "Greyhound Public House", "add": "Public House, 1 Kensington Square, LONDON", "postcode": "W8 5EP", "owner": "", "status": "", "col5": "525783", "col6": "179537", "lat": 51.500784, "long": -0.189242, "city": "Kensington and Chelsea", "notes": "", "website": "", "history": "" }, "geometry": { "type": "Point", "coordinates": [ -0.189242, 51.500784 ] } },
{ "type": "Feature", "properties": { "name": "Hennessy Concession/Hennessy Boutique", "add": "Harrods, 87-135 Brompton Road, LONDON", "postcode": "SW1X 7XL", "owner": "", "status": "", "col5": "527604", "col6": "179451", "lat": 51.499603, "long": -0.163052, "city": "Kensington and Chelsea", "notes": "", "website": "", "history": "" }, "geometry": { "type": "Point", "coordinates": [ -0.163052, 51.499603 ] } },
{ "type": "Feature", "properties": { "name": "Hereford Arms (The)", "add": "PUBLIC HOUSE, 127 Gloucester Road, LONDON", "postcode": "SW7 4TE", "owner": "Fuller, Smith & Turner ", "status": "", "col5": "526349", "col6": "178696", "lat": 51.493099, "long": -0.181393, "city": "Kensington and Chelsea", "notes": "Confidence: Medium. Listed in the Brewery History Society's Fuller's estate list; verify against Fuller's current pub finder.", "website": "https://breweryhistory.com/wiki/index.php/List_of_Fuller%2C_Smith_%26_Turner_Ltd_pubs", "history": "" }, "geometry": { "type": "Point", "coordinates": [ -0.181393, 51.493099 ] } },
{ "type": "Feature", "properties": { "name": "Hoop & Toy", "add": "34 Thurloe Place, LONDON", "postcode": "SW7 2HQ", "owner": "Greene King", "status": "", "col5": "526855", "col6": "178895", "lat": 51.494766, "long": -0.174037, "city": "Kensington and Chelsea", "notes": "Confidence: High. Ex-Taylor Walker (before that Spirit/Punch). Secondary: https://camra.org.uk/pubs/hoop-toy-south-kensington-128796", "website": "https://www.greeneking.co.uk/pubs/greater-london/hoop-and-toy", "history": "" }, "geometry": { "type": "Point", "coordinates": [ -0.174037, 51.494766 ] } },
{ "type": "Feature", "properties": { "name": "Jaks", "add": "Basement, 531-533 King's Road, LONDON", "postcode": "SW10 0TZ", "owner": "", "status": "", "col5": "526115", "col6": "177259", "lat": 51.480228, "long": -0.185275, "city": "Kensington and Chelsea", "notes": "", "website": "", "history": "" }, "geometry": { "type": "Point", "coordinates": [ -0.185275, 51.480228 ] } },
{ "type": "Feature", "properties": { "name": "Jaks Bar Limited", "add": "87-89 Walton Street, LONDON", "postcode": "SW3 2HP", "owner": "", "status": "", "col5": "527304", "col6": "178830", "lat": 51.49409, "long": -0.167596, "city": "Kensington and Chelsea", "notes": "", "website": "", "history": "" }, "geometry": { "type": "Point", "coordinates": [ -0.167596, 51.49409 ] } },
{ "type": "Feature", "properties": { "name": "Jeroboams", "add": "336 King's Road, LONDON", "postcode": "SW3 5UR", "owner": "", "status": "", "col5": "526850", "col6": "177850", "lat": 51.485377, "long": -0.174491, "city": "Kensington and Chelsea", "notes": "", "website": "", "history": "" }, "geometry": { "type": "Point", "coordinates": [ -0.174491, 51.485377 ] } },
{ "type": "Feature", "properties": { "name": "Kings Head", "add": "Public House, 17 Hogarth Place, LONDON", "postcode": "SW5 0QT", "owner": "Fuller, Smith & Turner ", "status": "", "col5": "525545", "col6": "178655", "lat": 51.49291, "long": -0.192982, "city": "Kensington and Chelsea", "notes": "Confidence: Medium. Listed in the Brewery History Society's Fuller's estate list; verify against Fuller's current pub finder.", "website": "https://breweryhistory.com/wiki/index.php/List_of_Fuller%2C_Smith_%26_Turner_Ltd_pubs", "history": "" }, "geometry": { "type": "Point", "coordinates": [ -0.192982, 51.49291 ] } },
{ "type": "Feature", "properties": { "name": "Ladbroke Arms Public House", "add": "54 Ladbroke Road, LONDON", "postcode": "W11 3NW", "owner": "Independent (unconfirmed)", "status": "", "col5": "524825", "col6": "180441", "lat": 51.509121, "long": -0.202717, "city": "Kensington and Chelsea", "notes": "Confidence: Unverified. Own-brand site with no chain attribution found; treat as independent pending a licensing-register or Companies House check.", "website": "https://www.ladbrokearms.com/", "history": "" }, "geometry": { "type": "Point", "coordinates": [ -0.202717, 51.509121 ] } },
{ "type": "Feature", "properties": { "name": "Larry King Limted", "add": "2-4 Lambton Place, LONDON", "postcode": "W11 2SH", "owner": "", "status": "", "col5": "524982", "col6": "180991", "lat": 51.51403, "long": -0.200268, "city": "Kensington and Chelsea", "notes": "", "website": "", "history": "" }, "geometry": { "type": "Point", "coordinates": [ -0.200268, 51.51403 ] } },
{ "type": "Feature", "properties": { "name": "Lots Road Pub & Dining room", "add": "114 Lots Road, LONDON", "postcode": "SW10 0RJ", "owner": "", "status": "", "col5": "526231", "col6": "177060", "lat": 51.478415, "long": -0.183677, "city": "Kensington and Chelsea", "notes": "", "website": "", "history": "" }, "geometry": { "type": "Point", "coordinates": [ -0.183677, 51.478415 ] } },
{ "type": "Feature", "properties": { "name": "Love", "add": "265 Portobello Road, LONDON", "postcode": "W11 1LR", "owner": "", "status": "", "col5": "524521", "col6": "181401", "lat": 51.517824, "long": -0.206756, "city": "Kensington and Chelsea", "notes": "", "website": "", "history": "" }, "geometry": { "type": "Point", "coordinates": [ -0.206756, 51.517824 ] } },
{ "type": "Feature", "properties": { "name": "Notting Hill Arts Club", "add": "19-21 Notting Hill Gate, LONDON", "postcode": "W11 3JQ", "owner": "", "status": "", "col5": "525375", "col6": "180457", "lat": 51.509143, "long": -0.19479, "city": "Kensington and Chelsea", "notes": "", "website": "", "history": "" }, "geometry": { "type": "Point", "coordinates": [ -0.19479, 51.509143 ] } },
{ "type": "Feature", "properties": { "name": "Old Swan", "add": "Public House, 206 Kensington Church Street, LONDON", "postcode": "W8 4DP", "owner": "Greene King", "status": "", "col5": "525364", "col6": "180417", "lat": 51.508794, "long": -0.194962, "city": "Kensington and Chelsea", "notes": "Confidence: High. Has a pub page on Greene King's own site.", "website": "https://www.greeneking.co.uk/pubs/greater-london/old-swan", "history": "" }, "geometry": { "type": "Point", "coordinates": [ -0.194962, 51.508794 ] } },
{ "type": "Feature", "properties": { "name": "Pig & Whistle PH", "add": "92-94 Bramley Road, LONDON", "postcode": "W10 6UG", "owner": "", "status": "", "col5": "523788", "col6": "180955", "lat": 51.513968, "long": -0.217472, "city": "Kensington and Chelsea", "notes": "", "website": "", "history": "" }, "geometry": { "type": "Point", "coordinates": [ -0.217472, 51.513968 ] } },
{ "type": "Feature", "properties": { "name": "Pig and Whistle Kitchen", "add": "92-94 Bramley Road, LONDON", "postcode": "W10 6UG", "owner": "", "status": "", "col5": "523788", "col6": "180955", "lat": 51.513968, "long": -0.217472, "city": "Kensington and Chelsea", "notes": "", "website": "", "history": "" }, "geometry": { "type": "Point", "coordinates": [ -0.217472, 51.513968 ] } },
{ "type": "Feature", "properties": { "name": "Portobello Star Public House", "add": "Public House, 171 Portobello Road, LONDON", "postcode": "W11 2DY", "owner": "", "status": "", "col5": "524718", "col6": "181002", "lat": 51.514186, "long": -0.204074, "city": "Kensington and Chelsea", "notes": "", "website": "", "history": "" }, "geometry": { "type": "Point", "coordinates": [ -0.204074, 51.514186 ] } },
{ "type": "Feature", "properties": { "name": "Prince Albert", "add": "11 Pembridge Road, LONDON", "postcode": "W11 3HQ", "owner": "", "status": "", "col5": "525172", "col6": "180497", "lat": 51.509547, "long": -0.1977, "city": "Kensington and Chelsea", "notes": "", "website": "", "history": "" }, "geometry": { "type": "Point", "coordinates": [ -0.1977, 51.509547 ] } },
{ "type": "Feature", "properties": { "name": "Prince Of Wales", "add": "Public House, 8 Kensington Church Street, LONDON", "postcode": "W8 4EP", "owner": "", "status": "", "col5": "525660", "col6": "179741", "lat": 51.502635, "long": -0.190941, "city": "Kensington and Chelsea", "notes": "", "website": "", "history": "" }, "geometry": { "type": "Point", "coordinates": [ -0.190941, 51.502635 ] } },
{ "type": "Feature", "properties": { "name": "Raffles Club", "add": "287 King's Road, LONDON", "postcode": "SW3 5EW", "owner": "", "status": "", "col5": "526914", "col6": "177847", "lat": 51.485344, "long": -0.173564, "city": "Kensington and Chelsea", "notes": "", "website": "", "history": "" }, "geometry": { "type": "Point", "coordinates": [ -0.173564, 51.485344 ] } },
{ "type": "Feature", "properties": { "name": "Sporting Club De Londres", "add": "27 Elkstone Road, LONDON", "postcode": "W10 5NT", "owner": "", "status": "", "col5": "524769", "col6": "181900", "lat": 51.522245, "long": -0.203008, "city": "Kensington and Chelsea", "notes": "", "website": "", "history": "" }, "geometry": { "type": "Point", "coordinates": [ -0.203008, 51.522245 ] } },
{ "type": "Feature", "properties": { "name": "Sporting Page", "add": "PUBLIC HOUSE, 6 Camera Place, LONDON", "postcode": "SW10 0BH", "owner": "", "status": "", "col5": "526510", "col6": "177763", "lat": 51.484679, "long": -0.179409, "city": "Kensington and Chelsea", "notes": "", "website": "", "history": "" }, "geometry": { "type": "Point", "coordinates": [ -0.179409, 51.484679 ] } },
{ "type": "Feature", "properties": { "name": "Stanhope Arms (The)", "add": "Adam Court, 97 Gloucester Road, LONDON", "postcode": "SW7 4SS", "owner": "Greene King", "status": "", "col5": "526295", "col6": "178822", "lat": 51.494244, "long": -0.182125, "city": "Kensington and Chelsea", "notes": "Confidence: Medium. Ex-Taylor Walker (Taylor Walker passed to Greene King with the Spirit acquisition in 2015); confirm on Greene King's current pub finder. Sources: https://www.greeneking.co.uk/our-company/our-history ; https://www.tripadvisor.co.uk/ShowUserReviews-g186338-d1581706-r329547961-The_Stanhope_Arms-London_England.html", "website": "", "history": "" }, "geometry": { "type": "Point", "coordinates": [ -0.182125, 51.494244 ] } },
{ "type": "Feature", "properties": { "name": "Stewart Arms PH", "add": "26 Norland Road, LONDON", "postcode": "W11 4TR", "owner": "", "status": "", "col5": "523905", "col6": "180041", "lat": 51.505728, "long": -0.216107, "city": "Kensington and Chelsea", "notes": "", "website": "", "history": "" }, "geometry": { "type": "Point", "coordinates": [ -0.216107, 51.505728 ] } },
{ "type": "Feature", "properties": { "name": "Sun in Splendour", "add": "PUBLIC HOUSE, 7 Portobello Road, LONDON", "postcode": "W11 3DA", "owner": "Mitchell and Butlers", "status": "", "col5": "525141", "col6": "180648", "lat": 51.510911, "long": -0.198092, "city": "Kensington and Chelsea", "notes": "Confidence: High. Brand: M&B Castle. CAMRA's WhatPub entry explicitly describes it as an M&B Castle pub.", "website": "https://whatpub.com/pubs/WLD/16400/sun-in-splendour-notting-hill", "history": "" }, "geometry": { "type": "Point", "coordinates": [ -0.198092, 51.510911 ] } },
{ "type": "Feature", "properties": { "name": "The Beauchamp", "add": "43-44 Beauchamp Place, LONDON", "postcode": "SW3 1NX", "owner": "", "status": "", "col5": "527484", "col6": "179206", "lat": 51.497429, "long": -0.164869, "city": "Kensington and Chelsea", "notes": "", "website": "", "history": "" }, "geometry": { "type": "Point", "coordinates": [ -0.164869, 51.497429 ] } },
{ "type": "Feature", "properties": { "name": "The Britannia", "add": "Public House, 1 Allen Street, LONDON", "postcode": "W8 6UX", "owner": "Young's", "status": "", "col5": "525412", "col6": "179119", "lat": 51.497109, "long": -0.194732, "city": "Kensington and Chelsea", "notes": "Confidence: High. Young & Co.'s Brewery PLC. Listed by name on Young's own venue round-up page: https://www.youngs.co.uk/pubs-to-watch-the-six-nations-in-west-london", "website": "https://www.britanniakensington.co.uk/", "history": "" }, "geometry": { "type": "Point", "coordinates": [ -0.194732, 51.497109 ] } },
{ "type": "Feature", "properties": { "name": "The Castle", "add": "Public House, 225 Portobello Road, LONDON", "postcode": "W11 1LU", "owner": "", "status": "", "col5": "524609", "col6": "181238", "lat": 51.51633, "long": -0.205546, "city": "Kensington and Chelsea", "notes": "", "website": "", "history": "" }, "geometry": { "type": "Point", "coordinates": [ -0.205546, 51.51633 ] } },
{ "type": "Feature", "properties": { "name": "The Champion", "add": "Public House 1 Wellington Terrace, Notting Hill Gate, LONDON", "postcode": "W2 4LW", "owner": "", "status": "", "col5": "525528", "col6": "180554", "lat": 51.50998, "long": -0.192552, "city": "Kensington and Chelsea", "notes": "", "website": "", "history": "" }, "geometry": { "type": "Point", "coordinates": [ -0.192552, 51.50998 ] } },
{ "type": "Feature", "properties": { "name": "The Coopers Arms", "add": "PUBLIC HOUSE, 87 Flood Street, LONDON", "postcode": "SW3 5TB", "owner": "", "status": "", "col5": "527508", "col6": "177945", "lat": 51.48609, "long": -0.164978, "city": "Kensington and Chelsea", "notes": "", "website": "", "history": "" }, "geometry": { "type": "Point", "coordinates": [ -0.164978, 51.48609 ] } },
{ "type": "Feature", "properties": { "name": "The Crown", "add": "Public House, 153 Dovehouse Street, LONDON", "postcode": "SW3 6LB", "owner": "", "status": "", "col5": "526921", "col6": "178377", "lat": 51.490096, "long": -0.173273, "city": "Kensington and Chelsea", "notes": "", "website": "", "history": "" }, "geometry": { "type": "Point", "coordinates": [ -0.173273, 51.490096 ] } },
{ "type": "Feature", "properties": { "name": "The Eagle", "add": "250 Ladbroke Grove, LONDON", "postcode": "W10 5LP", "owner": "", "status": "", "col5": "524085", "col6": "181937", "lat": 51.522728, "long": -0.212863, "city": "Kensington and Chelsea", "notes": "", "website": "", "history": "" }, "geometry": { "type": "Point", "coordinates": [ -0.212863, 51.522728 ] } },
{ "type": "Feature", "properties": { "name": "The Earls Court Tavern", "add": "Public House, 123 Earl's Court Road, LONDON", "postcode": "SW5 9RL", "owner": "Greene King", "status": "", "col5": "525436", "col6": "178747", "lat": 51.493762, "long": -0.194526, "city": "Kensington and Chelsea", "notes": "Confidence: Medium. Ex-Taylor Walker (directory gives taylor-walker.co.uk as the pub's site; Taylor Walker is a Greene King brand post-2015). https://www.greeneking.co.uk/our-company/our-history", "website": "https://www.useyourlocal.com/pubs/earls-court-tavern-london-sw5-10348/", "history": "" }, "geometry": { "type": "Point", "coordinates": [ -0.194526, 51.493762 ] } },
{ "type": "Feature", "properties": { "name": "The Elgin", "add": "96 Ladbroke Grove, LONDON", "postcode": "W11 1PY", "owner": "Young's", "status": "", "col5": "524367", "col6": "181249", "lat": 51.516483, "long": -0.209043, "city": "Kensington and Chelsea", "notes": "Confidence: High. Listed as 'The Elgin, Ladbroke Grove' on Young's own venue round-up page: https://www.youngs.co.uk/pubs-to-watch-the-six-nations-in-west-london", "website": "https://www.youngs.co.uk/", "history": "" }, "geometry": { "type": "Point", "coordinates": [ -0.209043, 51.516483 ] } },
{ "type": "Feature", "properties": { "name": "The Globe", "add": "103 Talbot Road, LONDON", "postcode": "W11 2AT", "owner": "", "status": "", "col5": "524958", "col6": "181279", "lat": 51.516622, "long": -0.200505, "city": "Kensington and Chelsea", "notes": "", "website": "", "history": "" }, "geometry": { "type": "Point", "coordinates": [ -0.200505, 51.516622 ] } },
{ "type": "Feature", "properties": { "name": "The Gloucester", "add": "187 Sloane Street, LONDON", "postcode": "SW1X 9QR", "owner": "", "status": "", "col5": "527852", "col6": "179498", "lat": 51.49997, "long": -0.159465, "city": "Kensington and Chelsea", "notes": "", "website": "", "history": "" }, "geometry": { "type": "Point", "coordinates": [ -0.159465, 51.49997 ] } },
{ "type": "Feature", "properties": { "name": "The Goat Tavern", "add": "PUBLIC HOUSE, 3A Kensington High Street, LONDON", "postcode": "W8 5NP", "owner": "Greene King", "status": "", "col5": "525845", "col6": "179681", "lat": 51.502055, "long": -0.188298, "city": "Kensington and Chelsea", "notes": "Confidence: High. Named and described on Greene King's own London pubs editorial page.", "website": "https://www.greeneking.co.uk/behind-the-bar/the-best-pubs-in-london", "history": "" }, "geometry": { "type": "Point", "coordinates": [ -0.188298, 51.502055 ] } },
{ "type": "Feature", "properties": { "name": "The Hansom Cab", "add": "84 Earl's Court Road, LONDON", "postcode": "W8 6EG", "owner": "Pubs of Distinction (unconfirmed)", "status": "", "col5": "525245", "col6": "179007", "lat": 51.49614, "long": -0.197177, "city": "Kensington and Chelsea", "notes": "Confidence: Low. Independent. Previously owned by Piers Morgan and partners from 2010; sold 2019. Needs a Companies House / licensing check for current holder. Secondary: https://www.morningadvertiser.co.uk/Article/2019/09/18/Property-roundup-Piers-Morgan-s-former-pub-sold-Fuller-s-invests-2m/", "website": "https://www.thelondoneconomic.com/food-drink/best-pubs-in-west-london-211774/", "history": "" }, "geometry": { "type": "Point", "coordinates": [ -0.197177, 51.49614 ] } },
{ "type": "Feature", "properties": { "name": "The Hillgate", "add": "24 Hillgate Street, LONDON", "postcode": "W8 7SR", "owner": "", "status": "", "col5": "525173", "col6": "180338", "lat": 51.508118, "long": -0.197742, "city": "Kensington and Chelsea", "notes": "", "website": "", "history": "" }, "geometry": { "type": "Point", "coordinates": [ -0.197742, 51.508118 ] } },
{ "type": "Feature", "properties": { "name": "The Holland", "add": "PUBLIC HOUSE, 25 Earl's Court Road, LONDON", "postcode": "W8 6EB", "owner": "", "status": "", "col5": "525182", "col6": "179245", "lat": 51.498293, "long": -0.198014, "city": "Kensington and Chelsea", "notes": "", "website": "", "history": "" }, "geometry": { "type": "Point", "coordinates": [ -0.198014, 51.498293 ] } },
{ "type": "Feature", "properties": { "name": "The Hunter's Moon", "add": "Public House, 86 Fulham Road, LONDON", "postcode": "SW3 6HR", "owner": "", "status": "", "col5": "526805", "col6": "178375", "lat": 51.490114, "long": -0.17495, "city": "Kensington and Chelsea", "notes": "", "website": "", "history": "" }, "geometry": { "type": "Point", "coordinates": [ -0.17495, 51.490114 ] } },
{ "type": "Feature", "properties": { "name": "The Kings Arms", "add": "Public House, 190 Fulham Road, LONDON", "postcode": "SW10 9PN", "owner": "", "status": "", "col5": "526391", "col6": "177930", "lat": 51.486197, "long": -0.181062, "city": "Kensington and Chelsea", "notes": "", "website": "", "history": "" }, "geometry": { "type": "Point", "coordinates": [ -0.181062, 51.486197 ] } },
{ "type": "Feature", "properties": { "name": "The Knight of Notting Hill Pub", "add": "Public House, 139 Ladbroke Grove, LONDON", "postcode": "W10 6HJ", "owner": "", "status": "", "col5": "524300", "col6": "181296", "lat": 51.516921, "long": -0.209984, "city": "Kensington and Chelsea", "notes": "", "website": "", "history": "" }, "geometry": { "type": "Point", "coordinates": [ -0.209984, 51.516921 ] } },
{ "type": "Feature", "properties": { "name": "The Mall Tavern", "add": "Public House, 71-73 Palace Gardens Terrace, LONDON", "postcode": "W8 4RU", "owner": "", "status": "", "col5": "525448", "col6": "180345", "lat": 51.508119, "long": -0.193778, "city": "Kensington and Chelsea", "notes": "", "website": "", "history": "" }, "geometry": { "type": "Point", "coordinates": [ -0.193778, 51.508119 ] } },
{ "type": "Feature", "properties": { "name": "The Mitre", "add": "PUBLIC HOUSE, 40 Holland Park Avenue, LONDON", "postcode": "W11 3QY", "owner": "", "status": "", "col5": "524730", "col6": "180300", "lat": 51.507874, "long": -0.204135, "city": "Kensington and Chelsea", "notes": "", "website": "", "history": "" }, "geometry": { "type": "Point", "coordinates": [ -0.204135, 51.507874 ] } },
{ "type": "Feature", "properties": { "name": "The Pelican", "add": "Public House, 45 All Saints Road, LONDON", "postcode": "W11 1HE", "owner": "", "status": "", "col5": "524686", "col6": "181470", "lat": 51.518398, "long": -0.204355, "city": "Kensington and Chelsea", "notes": "", "website": "", "history": "" }, "geometry": { "type": "Point", "coordinates": [ -0.204355, 51.518398 ] } },
{ "type": "Feature", "properties": { "name": "The Pembroke", "add": "Public House, 261 Old Brompton Road, LONDON", "postcode": "SW5 9JA", "owner": "", "status": "", "col5": "525626", "col6": "178189", "lat": 51.488704, "long": -0.191982, "city": "Kensington and Chelsea", "notes": "", "website": "", "history": "" }, "geometry": { "type": "Point", "coordinates": [ -0.191982, 51.488704 ] } },
{ "type": "Feature", "properties": { "name": "The Phene", "add": "Arms, 9 Phene Street, LONDON", "postcode": "SW3 5NY", "owner": "", "status": "", "col5": "527331", "col6": "177843", "lat": 51.485214, "long": -0.167563, "city": "Kensington and Chelsea", "notes": "", "website": "", "history": "" }, "geometry": { "type": "Point", "coordinates": [ -0.167563, 51.485214 ] } },
{ "type": "Feature", "properties": { "name": "The Phoenix Pub and Dining Room", "add": "23 Smith Street, LONDON", "postcode": "SW3 4EE", "owner": "", "status": "", "col5": "527624", "col6": "178271", "lat": 51.488994, "long": -0.163191, "city": "Kensington and Chelsea", "notes": "", "website": "", "history": "" }, "geometry": { "type": "Point", "coordinates": [ -0.163191, 51.488994 ] } },
{ "type": "Feature", "properties": { "name": "The Prince of Teck", "add": "PUBLIC HOUSE, 161 Earl's Court Road, LONDON", "postcode": "SW5 9RQ", "owner": "", "status": "", "col5": "525486", "col6": "178663", "lat": 51.492986, "long": -0.193829, "city": "Kensington and Chelsea", "notes": "", "website": "", "history": "" }, "geometry": { "type": "Point", "coordinates": [ -0.193829, 51.492986 ] } },
{ "type": "Feature", "properties": { "name": "The Queen's Arms", "add": "30 Queen's Gate Mews, LONDON", "postcode": "SW7 5QL", "owner": "", "status": "", "col5": "526361", "col6": "179445", "lat": 51.499829, "long": -0.180952, "city": "Kensington and Chelsea", "notes": "", "website": "", "history": "" }, "geometry": { "type": "Point", "coordinates": [ -0.180952, 51.499829 ] } },
{ "type": "Feature", "properties": { "name": "The Scarsdale", "add": "Public House, 23A Edwardes Square, LONDON", "postcode": "W8 6HE", "owner": "Fuller, Smith & Turner ", "status": "", "col5": "525087", "col6": "179180", "lat": 51.49773, "long": -0.19939, "city": "Kensington and Chelsea", "notes": "Confidence: High. Pub's own site (https://www.scarsdaletavern.co.uk/) is Fuller's-branded; runner-up for Fuller's Griffin Trophy in 2022.", "website": "https://camra.org.uk/pubs/scarsdale-tavern-kensington-128989", "history": "" }, "geometry": { "type": "Point", "coordinates": [ -0.19939, 51.49773 ] } },
{ "type": "Feature", "properties": { "name": "The Surprise", "add": "Public House, 6 Christchurch Terrace, LONDON", "postcode": "SW3 4AJ", "owner": "", "status": "", "col5": "527665", "col6": "177973", "lat": 51.486298, "long": -0.162708, "city": "Kensington and Chelsea", "notes": "", "website": "", "history": "" }, "geometry": { "type": "Point", "coordinates": [ -0.162708, 51.486298 ] } },
{ "type": "Feature", "properties": { "name": "The Sydney Arms", "add": "70 Sydney Street, LONDON", "postcode": "SW3 6NJ", "owner": "", "status": "", "col5": "527215", "col6": "178193", "lat": 51.488377, "long": -0.169107, "city": "Kensington and Chelsea", "notes": "", "website": "", "history": "" }, "geometry": { "type": "Point", "coordinates": [ -0.169107, 51.488377 ] } },
{ "type": "Feature", "properties": { "name": "The Uxbridge Arms", "add": "13 Uxbridge Street, LONDON", "postcode": "W8 7TQ", "owner": "", "status": "", "col5": "525109", "col6": "180368", "lat": 51.508402, "long": -0.198653, "city": "Kensington and Chelsea", "notes": "", "website": "", "history": "" }, "geometry": { "type": "Point", "coordinates": [ -0.198653, 51.508402 ] } },
{ "type": "Feature", "properties": { "name": "The Volunteer", "add": "Public House, 274 Latimer Road, LONDON", "postcode": "W10 6QW", "owner": "", "status": "", "col5": "523280", "col6": "181463", "lat": 51.518653, "long": -0.22461, "city": "Kensington and Chelsea", "notes": "", "website": "", "history": "" }, "geometry": { "type": "Point", "coordinates": [ -0.22461, 51.518653 ] } },
{ "type": "Feature", "properties": { "name": "Warwick Arms", "add": "160 Warwick Road, LONDON", "postcode": "W14 8PS", "owner": "", "status": "", "col5": "524842", "col6": "178890", "lat": 51.495178, "long": -0.203021, "city": "Kensington and Chelsea", "notes": "", "website": "", "history": "" }, "geometry": { "type": "Point", "coordinates": [ -0.203021, 51.495178 ] } },
{ "type": "Feature", "properties": { "name": "Windsor Castle", "add": "Public House, 114 Campden Hill Road, LONDON", "postcode": "W8 7AR", "owner": "Mitchell and Butlers", "status": "", "col5": "525116", "col6": "180162", "lat": 51.506548, "long": -0.198625, "city": "Kensington and Chelsea", "notes": "Confidence: Medium. M&B Castle / Nicholson's estate. Grade II listed; confirm on mbplc.com brand site.", "website": "https://en.wikipedia.org/wiki/Windsor_Castle%2C_Kensington", "history": "" }, "geometry": { "type": "Point", "coordinates": [ -0.198625, 51.506548 ] } },
{ "type": "Feature", "properties": { "name": "Zefi Bar", "add": "Club, 531-533 King's Road, LONDON", "postcode": "SW10 0TZ", "owner": "", "status": "", "col5": "526115", "col6": "177259", "lat": 51.480228, "long": -0.185275, "city": "Kensington and Chelsea", "notes": "", "website": "", "history": "" }, "geometry": { "type": "Point", "coordinates": [ -0.185275, 51.480228 ] } },
{ "type": "Feature", "properties": { "name": "Zetland Arms PH", "add": "PUBLIC HOUSE, 2-4 Bute Street, LONDON", "postcode": "SW7 3EX", "owner": "Greene King", "status": "", "col5": "526709", "col6": "178776", "lat": 51.493738, "long": -0.176181, "city": "Kensington and Chelsea", "notes": "Confidence: Medium. Ex-Taylor Walker (passed to Greene King in 2015). https://www.greeneking.co.uk/our-company/our-history", "website": "https://en.wikipedia.org/wiki/Zetland_Arms", "history": "" }, "geometry": { "type": "Point", "coordinates": [ -0.176181, 51.493738 ] } },
{ "type": "Feature", "properties": { "name": "The Quiet Night Inn", "add": "60 GREAT WESTERN ROAD, LONDON", "postcode": "W11 1AB", "owner": "", "status": "", "col5": "524932", "col6": "181725", "lat": 51.520638, "long": -0.200728, "city": "Kensington and Chelsea", "notes": "", "website": "", "history": "" }, "geometry": { "type": "Point", "coordinates": [ -0.200728, 51.520638 ] } },
{ "type": "Feature", "properties": { "name": "Builders Arms", "add": "1 Kensington Court Place, LONDON", "postcode": "W8 5BJ", "owner": "Mitchell and Butlers", "status": "", "col5": "", "col6": "", "city": "Kensington and Chelsea", "notes": "Confidence: Low. Site copy is near-identical to the M&B-operated Devonshire Arms site, and a pub-photography archive records M&B (Metro Professionals), but this is NOT confirmed by a company source. Distinct from Builders Arms PH in Chelsea (Britten Street), already on this sheet, which Hippo Inns bought from Geronimo in 2019: https://www.hospitalityandcateringnews.com/2019/09/hippo-inns-acquires-builders-arms-geronimo-inns/", "website": "https://www.thebuildersarmskensington.co.uk/about-us", "history": "" }, "geometry": null },
{ "type": "Feature", "properties": { "name": "O'Neill's Earls Court", "add": "326 Earls Court Road, LONDON", "postcode": "SW5 9BQ", "owner": "Mitchell and Butlers", "status": "", "col5": "", "col6": "", "city": "Kensington and Chelsea", "notes": "Confidence: Medium. Brand: O'Neill's, an M&B brand; site appears on the RBKC licensing awards list. Confirm the site is still trading under the brand.", "website": "https://www.rbkc.gov.uk/bestbarnone/awarded2011.asp", "history": "" }, "geometry": null },
{ "type": "Feature", "properties": { "name": "All Bar One Notting Hill", "add": "126-128 Notting Hill Gate, LONDON", "postcode": "W11 3RG", "owner": "Mitchell and Butlers", "status": "", "col5": "", "col6": "", "city": "Kensington and Chelsea", "notes": "Confidence: Medium. Brand: All Bar One, an M&B brand; site appears on the RBKC licensing awards list (2010). Confirm still trading.", "website": "https://www.rbkc.gov.uk/bestbarnone/awarded2010.asp", "history": "" }, "geometry": null },
{ "type": "Feature", "properties": { "name": "Cock & Bottle", "add": "17 Needham Road, LONDON", "postcode": "W11 2RP", "owner": "Not established", "status": "", "col5": "", "col6": "", "city": "Kensington and Chelsea", "notes": "Confidence: Unverified. Own-brand site with no chain attribution found. CAMRA crawl notes Young's Original on the bar, which is suggestive but not proof of ownership: https://londonpubsgroup.camra.org.uk/viewnode.php?id=242411", "website": "https://www.cockandbottlew11.com/", "history": "" }, "geometry": null }
]
}
