{
  "type": "FeatureCollection",
  "features": [
    {
      "type": "Feature",
      "properties": {
        "name": "Bacchus Late Bar & Venue",
        "add": "2 Church Street, Kingston Upon Thames",
        "postcode": "KT1 1RJ",
        "owner": "Independent",
        "status": "open",
        "lat": 51.409935,
        "long": -0.305444,
        "city": "Kingston upon Thames",
        "notes": ""
      },
      "geometry": {
        "type": "Point",
        "coordinates": [
          -0.305444,
          51.409935
        ]
      }
    },
    {
      "type": "Feature",
      "properties": {
        "name": "Bar Malden",
        "add": "1-3 St Georges Square, New Malden",
        "postcode": "KT3 4HG",
        "owner": "Marston's",
        "status": "closed",
        "lat": 51.403487,
        "long": -0.256442,
        "city": "Kingston upon Thames",
        "notes": ""
      },
      "geometry": {
        "type": "Point",
        "coordinates": [
          -0.256442,
          51.403487
        ]
      }
    },
    {
      "type": "Feature",
      "properties": {
        "name": "Black Horse T/A 88th St T/A Value Mighty T/A Sin City Burger",
        "add": "204 London Road, Kingston Upon Thames",
        "postcode": "KT2 6QP",
        "owner": "Independent",
        "status": "open",
        "lat": 51.413545,
        "long": -0.287223,
        "city": "Kingston upon Thames",
        "notes": "Freehold: Stonegate"
      },
      "geometry": {
        "type": "Point",
        "coordinates": [
          -0.287223,
          51.413545
        ]
      }
    },
    {
      "type": "Feature",
      "properties": {
        "name": "Boaters",
        "add": "The Boaters Inn, Canbury Gardens, Kingston Upon Thames",
        "postcode": "KT2 5AU",
        "owner": "Greene King",
        "status": "open",
        "lat": 51.418957,
        "long": -0.305622,
        "city": "Kingston upon Thames",
        "notes": ""
      },
      "geometry": {
        "type": "Point",
        "coordinates": [
          -0.305622,
          51.418957
        ]
      }
    },
    {
      "type": "Feature",
      "properties": {
        "name": "Brave New World",
        "add": "22-26 Berrylands Road, Surbiton",
        "postcode": "KT5 8RA",
        "owner": "Independent",
        "status": "open",
        "lat": 51.39303,
        "long": -0.295722,
        "city": "Kingston upon Thames",
        "notes": ""
      },
      "geometry": {
        "type": "Point",
        "coordinates": [
          -0.295722,
          51.39303
        ]
      }
    },
    {
      "type": "Feature",
      "properties": {
        "name": "Coronation Hall",
        "add": "The Coronation Hall, St Mark's Hill, Surbiton",
        "postcode": "KT6 4LQ",
        "owner": "JD Wetherspoon",
        "status": "open",
        "lat": 51.393616,
        "long": -0.303715,
        "city": "Kingston upon Thames",
        "notes": ""
      },
      "geometry": {
        "type": "Point",
        "coordinates": [
          -0.303715,
          51.393616
        ]
      }
    },
    {
      "type": "Feature",
      "properties": {
        "name": "Duke Of York",
        "add": "64-65 Victoria Road, Surbiton",
        "postcode": "KT6 4NQ",
        "owner": "Morgan Pub Co",
        "status": "open",
        "lat": 51.39194,
        "long": -0.306744,
        "city": "Kingston upon Thames",
        "notes": ""
      },
      "geometry": {
        "type": "Point",
        "coordinates": [
          -0.306744,
          51.39194
        ]
      }
    },
    {
      "type": "Feature",
      "properties": {
        "name": "Gordon Bennett Bar & Kitchen",
        "add": "75 Maple Road, Surbiton",
        "postcode": "KT6 4AG",
        "owner": "independent",
        "status": "closed",
        "lat": 51.394803,
        "long": -0.308191,
        "city": "Kingston upon Thames",
        "notes": ""
      },
      "geometry": {
        "type": "Point",
        "coordinates": [
          -0.308191,
          51.394803
        ]
      }
    },
    {
      "type": "Feature",
      "properties": {
        "name": "Harts Boatyard",
        "add": "Portsmouth Road, Surbiton",
        "postcode": "KT6 4HJ",
        "owner": "Mitchells & Butlers",
        "status": "open",
        "lat": 51.396961,
        "long": -0.312,
        "city": "Kingston upon Thames",
        "notes": ""
      },
      "geometry": {
        "type": "Point",
        "coordinates": [
          -0.312,
          51.396961
        ]
      }
    },
    {
      "type": "Feature",
      "properties": {
        "name": "Hollywood Bowl",
        "add": "Charrington Bowl, Kingston Road, Tolworth",
        "postcode": "KT5 9PB",
        "owner": "Hollywood Bowl Group",
        "status": "open",
        "lat": 51.377818,
        "long": -0.280472,
        "city": "Kingston upon Thames",
        "notes": ""
      },
      "geometry": {
        "type": "Point",
        "coordinates": [
          -0.280472,
          51.377818
        ]
      }
    },
    {
      "type": "Feature",
      "properties": {
        "name": "Kai's Thai Food @ The Cocoanut",
        "add": "The Cocoanut, 16 Mill Street, Kingston Upon Thames",
        "postcode": "KT1 2RF",
        "owner": "Independent",
        "status": "open",
        "lat": 51.406866,
        "long": -0.298515,
        "city": "Kingston upon Thames",
        "notes": "Tom Holland's favourite thai place in london"
      },
      "geometry": {
        "type": "Point",
        "coordinates": [
          -0.298515,
          51.406866
        ]
      }
    },
    {
      "type": "Feature",
      "properties": {
        "name": "Kings Tun",
        "add": "153-157 Clarence Street, Kingston Upon Thames",
        "postcode": "KT1 1QT",
        "owner": "JD Wetherspoon",
        "status": "open",
        "lat": 51.411387,
        "long": -0.300849,
        "city": "Kingston upon Thames",
        "notes": ""
      },
      "geometry": {
        "type": "Point",
        "coordinates": [
          -0.300849,
          51.411387
        ]
      }
    },
    {
      "type": "Feature",
      "properties": {
        "name": "Kingston Working Mens Club",
        "add": "25 Old London Road, Kingston Upon Thames",
        "postcode": "KT2 6ND",
        "owner": "Kingston Workmens' Club & Institute",
        "status": "open",
        "lat": 51.411232,
        "long": -0.299446,
        "city": "Kingston upon Thames",
        "notes": ""
      },
      "geometry": {
        "type": "Point",
        "coordinates": [
          -0.299446,
          51.411232
        ]
      }
    },
    {
      "type": "Feature",
      "properties": {
        "name": "Monkey Puzzle",
        "add": "The Monkey Puzzle, Leatherhead Road, Chessington",
        "postcode": "KT9 2NE",
        "owner": "Beefeater",
        "status": "closed",
        "lat": 51.348615,
        "long": -0.314795,
        "city": "Kingston upon Thames",
        "notes": ""
      },
      "geometry": {
        "type": "Point",
        "coordinates": [
          -0.314795,
          51.348615
        ]
      }
    },
    {
      "type": "Feature",
      "properties": {
        "name": "O'Neills",
        "add": "3 Eden Street, Kingston Upon Thames",
        "postcode": "KT1 1BQ",
        "owner": "Mitchells & Butlers",
        "status": "open",
        "lat": 51.409108,
        "long": -0.305513,
        "city": "Kingston upon Thames",
        "notes": ""
      },
      "geometry": {
        "type": "Point",
        "coordinates": [
          -0.305513,
          51.409108
        ]
      }
    },
    {
      "type": "Feature",
      "properties": {
        "name": "Queens Head",
        "add": "144 Richmond Road, Kingston Upon Thames",
        "postcode": "KT2 5HA",
        "owner": "Fulller Smith & Turner",
        "status": "open",
        "lat": 51.418623,
        "long": -0.301355,
        "city": "Kingston upon Thames",
        "notes": ""
      },
      "geometry": {
        "type": "Point",
        "coordinates": [
          -0.301355,
          51.418623
        ]
      }
    },
    {
      "type": "Feature",
      "properties": {
        "name": "Royal British Legion Chessington",
        "add": "British Legion Club, Church Lane, Chessington",
        "postcode": "KT9 2DR",
        "owner": "Royal British Legion",
        "status": "open",
        "lat": 51.35838,
        "long": -0.29924,
        "city": "Kingston upon Thames",
        "notes": ""
      },
      "geometry": {
        "type": "Point",
        "coordinates": [
          -0.29924,
          51.35838
        ]
      }
    },
    {
      "type": "Feature",
      "properties": {
        "name": "Royal British Legion Club Surbiton",
        "add": "British Legion Club, Hollyfield Road, Surbiton",
        "postcode": "KT5 9AL",
        "owner": "Royal British Legion",
        "status": "open",
        "lat": 51.386534,
        "long": -0.292879,
        "city": "Kingston upon Thames",
        "notes": ""
      },
      "geometry": {
        "type": "Point",
        "coordinates": [
          -0.292879,
          51.386534
        ]
      }
    },
    {
      "type": "Feature",
      "properties": {
        "name": "Spring Grove Public House",
        "add": "Spring Grove, 13 Bloomfield Road, Kingston Upon Thames",
        "postcode": "KT1 2SF",
        "owner": "Young's",
        "status": "open",
        "lat": 51.403289,
        "long": -0.299453,
        "city": "Kingston upon Thames",
        "notes": ""
      },
      "geometry": {
        "type": "Point",
        "coordinates": [
          -0.299453,
          51.403289
        ]
      }
    },
    {
      "type": "Feature",
      "properties": {
        "name": "Steins",
        "add": "56 High Street, Kingston Upon Thames",
        "postcode": "KT1 1HN",
        "owner": "Independent",
        "status": "open",
        "lat": 51.407126,
        "long": -0.308043,
        "city": "Kingston upon Thames",
        "notes": ""
      },
      "geometry": {
        "type": "Point",
        "coordinates": [
          -0.308043,
          51.407126
        ]
      }
    },
    {
      "type": "Feature",
      "properties": {
        "name": "The Albert",
        "add": "57 Kingston Hill, Kingston Upon Thames",
        "postcode": "KT2 7PX",
        "owner": "Young's",
        "status": "open",
        "lat": 51.416216,
        "long": -0.283955,
        "city": "Kingston upon Thames",
        "notes": ""
      },
      "geometry": {
        "type": "Point",
        "coordinates": [
          -0.283955,
          51.416216
        ]
      }
    },
    {
      "type": "Feature",
      "properties": {
        "name": "The Albion Tavern",
        "add": "The Albion, 45 Fairfield Road, Kingston Upon Thames",
        "postcode": "KT1 2PY",
        "owner": "Big Smoke Pub Co",
        "status": "open",
        "lat": 51.409217,
        "long": -0.29792,
        "city": "Kingston upon Thames",
        "notes": ""
      },
      "geometry": {
        "type": "Point",
        "coordinates": [
          -0.29792,
          51.409217
        ]
      }
    },
    {
      "type": "Feature",
      "properties": {
        "name": "The Antelope",
        "add": "87 Maple Road, Surbiton",
        "postcode": "KT6 4AW",
        "owner": "Big Smoke Pub Co",
        "status": "open",
        "lat": 51.395185,
        "long": -0.307875,
        "city": "Kingston upon Thames",
        "notes": ""
      },
      "geometry": {
        "type": "Point",
        "coordinates": [
          -0.307875,
          51.395185
        ]
      }
    },
    {
      "type": "Feature",
      "properties": {
        "name": "The Berrylands",
        "add": "107 Chiltern Drive, Surbiton",
        "postcode": "KT5 8LS",
        "owner": "Handcrafted Pubs",
        "status": "open",
        "lat": 51.398115,
        "long": -0.28068,
        "city": "Kingston upon Thames",
        "notes": "Freehold: Wellesley Capital"
      },
      "geometry": {
        "type": "Point",
        "coordinates": [
          -0.28068,
          51.398115
        ]
      }
    },
    {
      "type": "Feature",
      "properties": {
        "name": "The Bishop",
        "add": "2 Bishops Hall, Kingston Upon Thames",
        "postcode": "KT1 1PY",
        "owner": "Young's",
        "status": "open",
        "lat": 51.410299,
        "long": -0.308,
        "city": "Kingston upon Thames",
        "notes": ""
      },
      "geometry": {
        "type": "Point",
        "coordinates": [
          -0.308,
          51.410299
        ]
      }
    },
    {
      "type": "Feature",
      "properties": {
        "name": "The Black Lion",
        "add": "58 Brighton Road, Surbiton",
        "postcode": "KT6 5PL",
        "owner": "Punch Pubs & Co",
        "status": "open",
        "lat": 51.392066,
        "long": -0.310447,
        "city": "Kingston upon Thames",
        "notes": ""
      },
      "geometry": {
        "type": "Point",
        "coordinates": [
          -0.310447,
          51.392066
        ]
      }
    },
    {
      "type": "Feature",
      "properties": {
        "name": "The Bricklayers Arms",
        "add": "53 Hawks Road, Kingston Upon Thames",
        "postcode": "KT1 3DS",
        "owner": "Morgan Pub Co",
        "status": "open",
        "lat": 51.409198,
        "long": -0.291838,
        "city": "Kingston upon Thames",
        "notes": "Freehold: Greene King"
      },
      "geometry": {
        "type": "Point",
        "coordinates": [
          -0.291838,
          51.409198
        ]
      }
    },
    {
      "type": "Feature",
      "properties": {
        "name": "The Canbury Arms",
        "add": "49 Canbury Park Road, Kingston Upon Thames",
        "postcode": "KT2 6LQ",
        "owner": "Morgan Pub Co",
        "status": "open",
        "lat": 51.413402,
        "long": -0.296561,
        "city": "Kingston upon Thames",
        "notes": ""
      },
      "geometry": {
        "type": "Point",
        "coordinates": [
          -0.296561,
          51.413402
        ]
      }
    },
    {
      "type": "Feature",
      "properties": {
        "name": "The Cardinal PH, Peppe Restaurant T/A Cucuzza Feat Peppe",
        "add": "174 Tudor Drive, Kingston Upon Thames",
        "postcode": "KT2 5QG",
        "owner": "independent",
        "status": "open",
        "lat": 51.426555,
        "long": -0.298229,
        "city": "Kingston upon Thames",
        "notes": "Freehold: Stonegate"
      },
      "geometry": {
        "type": "Point",
        "coordinates": [
          -0.298229,
          51.426555
        ]
      }
    },
    {
      "type": "Feature",
      "properties": {
        "name": "The Chessington Oak",
        "add": "Chessington Oak, 116 Moor Lane, Chessington",
        "postcode": "KT9 1HX",
        "owner": "Mitchells & Butlers",
        "status": "open",
        "lat": 51.363968,
        "long": -0.296713,
        "city": "Kingston upon Thames",
        "notes": ""
      },
      "geometry": {
        "type": "Point",
        "coordinates": [
          -0.296713,
          51.363968
        ]
      }
    },
    {
      "type": "Feature",
      "properties": {
        "name": "The Cricketers",
        "add": "81 Clayton Road, Chessington",
        "postcode": "KT9 1NQ",
        "owner": "Independent",
        "status": "open",
        "lat": 51.367829,
        "long": -0.311319,
        "city": "Kingston upon Thames",
        "notes": "Freehold: Admiral Taverns"
      },
      "geometry": {
        "type": "Point",
        "coordinates": [
          -0.311319,
          51.367829
        ]
      }
    },
    {
      "type": "Feature",
      "properties": {
        "name": "The Druids Head",
        "add": "3 Market Place, Kingston Upon Thames",
        "postcode": "KT1 1JT",
        "owner": "Greene King",
        "status": "open",
        "lat": 51.409213,
        "long": -0.306505,
        "city": "Kingston upon Thames",
        "notes": ""
      },
      "geometry": {
        "type": "Point",
        "coordinates": [
          -0.306505,
          51.409213
        ]
      }
    },
    {
      "type": "Feature",
      "properties": {
        "name": "The Duke Of Buckingham",
        "add": "104 Villiers Road, Kingston Upon Thames",
        "postcode": "KT1 3BB",
        "owner": "Independent",
        "status": "open",
        "lat": 51.401914,
        "long": -0.295047,
        "city": "Kingston upon Thames",
        "notes": "Freehold: Stonegate"
      },
      "geometry": {
        "type": "Point",
        "coordinates": [
          -0.295047,
          51.401914
        ]
      }
    },
    {
      "type": "Feature",
      "properties": {
        "name": "The Fighting Cocks",
        "add": "56 Old London Road, Kingston Upon Thames",
        "postcode": "KT2 6QA",
        "owner": "Independent",
        "status": "open",
        "lat": 51.410674,
        "long": -0.298158,
        "city": "Kingston upon Thames",
        "notes": ""
      },
      "geometry": {
        "type": "Point",
        "coordinates": [
          -0.298158,
          51.410674
        ]
      }
    },
    {
      "type": "Feature",
      "properties": {
        "name": "The Fox & Hounds",
        "add": "The Fox And Hounds, 60 Portsmouth Road, Surbiton",
        "postcode": "KT6 4HS",
        "owner": "Independent",
        "status": "open",
        "lat": 51.395836,
        "long": -0.311795,
        "city": "Kingston upon Thames",
        "notes": "Freehold: Heineken"
      },
      "geometry": {
        "type": "Point",
        "coordinates": [
          -0.311795,
          51.395836
        ]
      }
    },
    {
      "type": "Feature",
      "properties": {
        "name": "The Gazebo",
        "add": "Riverside Walk, Kingston Upon Thames",
        "postcode": "KT1 1QN",
        "owner": "Samuel Smith",
        "status": "open",
        "lat": 51.410821,
        "long": -0.308098,
        "city": "Kingston upon Thames",
        "notes": ""
      },
      "geometry": {
        "type": "Point",
        "coordinates": [
          -0.308098,
          51.410821
        ]
      }
    },
    {
      "type": "Feature",
      "properties": {
        "name": "The Glasshouse",
        "add": "14 Coombe Road, New Malden",
        "postcode": "KT3 4QE",
        "owner": "Independent",
        "status": "open",
        "lat": 51.404303,
        "long": -0.257331,
        "city": "Kingston upon Thames",
        "notes": "Freehold: Heineken"
      },
      "geometry": {
        "type": "Point",
        "coordinates": [
          -0.257331,
          51.404303
        ]
      }
    },
    {
      "type": "Feature",
      "properties": {
        "name": "The Grey Horse",
        "add": "46 Richmond Road, Kingston Upon Thames",
        "postcode": "KT2 5EE",
        "owner": "Independent",
        "status": "open",
        "lat": 51.41433,
        "long": -0.300409,
        "city": "Kingston upon Thames",
        "notes": ""
      },
      "geometry": {
        "type": "Point",
        "coordinates": [
          -0.300409,
          51.41433
        ]
      }
    },
    {
      "type": "Feature",
      "properties": {
        "name": "The Grove",
        "add": "9 Grove Road, Surbiton",
        "postcode": "KT6 4BX",
        "owner": "Greene King",
        "status": "open",
        "lat": 51.396668,
        "long": -0.306301,
        "city": "Kingston upon Thames",
        "notes": ""
      },
      "geometry": {
        "type": "Point",
        "coordinates": [
          -0.306301,
          51.396668
        ]
      }
    },
    {
      "type": "Feature",
      "properties": {
        "name": "The Lamb Inn",
        "add": "73 Brighton Road, Surbiton",
        "postcode": "KT6 5NF",
        "owner": "Independent",
        "status": "open",
        "lat": 51.392047,
        "long": -0.311382,
        "city": "Kingston upon Thames",
        "notes": ""
      },
      "geometry": {
        "type": "Point",
        "coordinates": [
          -0.311382,
          51.392047
        ]
      }
    },
    {
      "type": "Feature",
      "properties": {
        "name": "The Lucky Rover",
        "add": "312 Hook Road, Chessington",
        "postcode": "KT9 1NY",
        "owner": "Independent",
        "status": "open",
        "lat": 51.367949,
        "long": -0.306838,
        "city": "Kingston upon Thames",
        "notes": "Freehold: Heineken"
      },
      "geometry": {
        "type": "Point",
        "coordinates": [
          -0.306838,
          51.367949
        ]
      }
    },
    {
      "type": "Feature",
      "properties": {
        "name": "The Maypole",
        "add": "2 Hook Road, Surbiton",
        "postcode": "KT6 5BH",
        "owner": "Stonegate",
        "status": "open",
        "lat": 51.382629,
        "long": -0.300893,
        "city": "Kingston upon Thames",
        "notes": ""
      },
      "geometry": {
        "type": "Point",
        "coordinates": [
          -0.300893,
          51.382629
        ]
      }
    },
    {
      "type": "Feature",
      "properties": {
        "name": "The Mill",
        "add": "The Kingston Mill, 58-62 High Street, Kingston Upon Thames",
        "postcode": "KT1 1HN",
        "owner": "Mitchells & Butlers",
        "status": "open",
        "lat": 51.407023,
        "long": -0.308143,
        "city": "Kingston upon Thames",
        "notes": ""
      },
      "geometry": {
        "type": "Point",
        "coordinates": [
          -0.308143,
          51.407023
        ]
      }
    },
    {
      "type": "Feature",
      "properties": {
        "name": "The Norbiton",
        "add": "16 Clifton Road, Kingston Upon Thames",
        "postcode": "KT2 6PW",
        "owner": "Highpress",
        "status": "open",
        "lat": 51.413741,
        "long": -0.28897,
        "city": "Kingston upon Thames",
        "notes": ""
      },
      "geometry": {
        "type": "Point",
        "coordinates": [
          -0.28897,
          51.413741
        ]
      }
    },
    {
      "type": "Feature",
      "properties": {
        "name": "The North Star",
        "add": "271 Hook Road, Chessington",
        "postcode": "KT9 1EQ",
        "owner": "Mitchells & Butlers",
        "status": "open",
        "lat": 51.370934,
        "long": -0.305535,
        "city": "Kingston upon Thames",
        "notes": ""
      },
      "geometry": {
        "type": "Point",
        "coordinates": [
          -0.305535,
          51.370934
        ]
      }
    },
    {
      "type": "Feature",
      "properties": {
        "name": "The Park Tavern",
        "add": "19 New Road, Kingston Upon Thames",
        "postcode": "KT2 6AP",
        "owner": "Independent",
        "status": "open",
        "lat": 51.41954,
        "long": -0.287631,
        "city": "Kingston upon Thames",
        "notes": ""
      },
      "geometry": {
        "type": "Point",
        "coordinates": [
          -0.287631,
          51.41954
        ]
      }
    },
    {
      "type": "Feature",
      "properties": {
        "name": "The Prince Of Wales",
        "add": "117 Ewell Road, Surbiton",
        "postcode": "KT6 6AL",
        "owner": "Fulller Smith & Turner",
        "status": "open",
        "lat": 51.389649,
        "long": -0.297556,
        "city": "Kingston upon Thames",
        "notes": ""
      },
      "geometry": {
        "type": "Point",
        "coordinates": [
          -0.297556,
          51.389649
        ]
      }
    },
    {
      "type": "Feature",
      "properties": {
        "name": "The Ram",
        "add": "34 High Street, Kingston Upon Thames",
        "postcode": "KT1 1HL",
        "owner": "Greene King",
        "status": "open",
        "lat": 51.408167,
        "long": -0.307726,
        "city": "Kingston upon Thames",
        "notes": ""
      },
      "geometry": {
        "type": "Point",
        "coordinates": [
          -0.307726,
          51.408167
        ]
      }
    },
    {
      "type": "Feature",
      "properties": {
        "name": "The Royal Oak",
        "add": "261 Ewell Road, Surbiton",
        "postcode": "KT6 7AA",
        "owner": "Stonegate",
        "status": "open",
        "lat": 51.385253,
        "long": -0.294876,
        "city": "Kingston upon Thames",
        "notes": ""
      },
      "geometry": {
        "type": "Point",
        "coordinates": [
          -0.294876,
          51.385253
        ]
      }
    },
    {
      "type": "Feature",
      "properties": {
        "name": "The Shy Horse",
        "add": "423 Leatherhead Road, Chessington",
        "postcode": "KT9 2NQ",
        "owner": "Mitchells & Butlers",
        "status": "open",
        "lat": 51.337102,
        "long": -0.319818,
        "city": "Kingston upon Thames",
        "notes": ""
      },
      "geometry": {
        "type": "Point",
        "coordinates": [
          -0.319818,
          51.337102
        ]
      }
    },
    {
      "type": "Feature",
      "properties": {
        "name": "The Star",
        "add": "Kingston Road, Malden Rushett, Leatherhead",
        "postcode": "KT22 0DP",
        "owner": "Barons Pubs",
        "status": "open",
        "lat": 52.68856624,
        "long": -0.438898088,
        "city": "Kingston upon Thames",
        "notes": ""
      },
      "geometry": {
        "type": "Point",
        "coordinates": [
          -0.438898088,
          52.68856624
        ]
      }
    },
    {
      "type": "Feature",
      "properties": {
        "name": "The Surbiton Flyer",
        "add": "84 Victoria Road, Surbiton",
        "postcode": "KT6 4NS",
        "owner": "Fulller Smith & Turner",
        "status": "open",
        "lat": 51.392714,
        "long": -0.30489,
        "city": "Kingston upon Thames",
        "notes": ""
      },
      "geometry": {
        "type": "Point",
        "coordinates": [
          -0.30489,
          51.392714
        ]
      }
    },
    {
      "type": "Feature",
      "properties": {
        "name": "The Victoria",
        "add": "28 Victoria Road, Surbiton",
        "postcode": "KT6 4JT",
        "owner": "Young's",
        "status": "open",
        "lat": 51.392206,
        "long": -0.307122,
        "city": "Kingston upon Thames",
        "notes": ""
      },
      "geometry": {
        "type": "Point",
        "coordinates": [
          -0.307122,
          51.392206
        ]
      }
    },
    {
      "type": "Feature",
      "properties": {
        "name": "The Watchman",
        "add": "184 High Street, New Malden",
        "postcode": "KT3 4ES",
        "owner": "JD Wetherspoon",
        "status": "open",
        "lat": 51.398889,
        "long": -0.255093,
        "city": "Kingston upon Thames",
        "notes": ""
      },
      "geometry": {
        "type": "Point",
        "coordinates": [
          -0.255093,
          51.398889
        ]
      }
    },
    {
      "type": "Feature",
      "properties": {
        "name": "The William Bourne - Also T/A Chik Box & K-Town Chicken",
        "add": "The William Bourne, 273 Moor Lane, Chessington",
        "postcode": "KT9 2BQ",
        "owner": "Independent",
        "status": "open",
        "lat": 51.36260305,
        "long": -0.288992874,
        "city": "Kingston upon Thames",
        "notes": "Freehold: Stonegate"
      },
      "geometry": {
        "type": "Point",
        "coordinates": [
          -0.288992874,
          51.36260305
        ]
      }
    },
    {
      "type": "Feature",
      "properties": {
        "name": "The Wych Elm Pub",
        "add": "The Wych Elm, 93 Elm Road, Kingston Upon Thames",
        "postcode": "KT2 6HT",
        "owner": "Fulller Smith & Turner",
        "status": "open",
        "lat": 51.417112,
        "long": -0.294159,
        "city": "Kingston upon Thames",
        "notes": ""
      },
      "geometry": {
        "type": "Point",
        "coordinates": [
          -0.294159,
          51.417112
        ]
      }
    },
    {
      "type": "Feature",
      "properties": {
        "name": "Waggon & Horses",
        "add": "The Waggon And Horses, 1 Surbiton Hill Road, Surbiton",
        "postcode": "KT6 4TW",
        "owner": "Authentic",
        "status": "open",
        "lat": 51.398989,
        "long": -0.301587,
        "city": "Kingston upon Thames",
        "notes": "Punch Pubs & Co"
      },
      "geometry": {
        "type": "Point",
        "coordinates": [
          -0.301587,
          51.398989
        ]
      }
    },
    {
      "type": "Feature",
      "properties": {
        "name": "Wheelwrights Arms",
        "add": "The Wheelwrights Arms, 60 Clarence Street, Kingston Upon Thames",
        "postcode": "KT1 1NP",
        "owner": "Unknown",
        "status": "open",
        "lat": 51.410619,
        "long": -0.301619,
        "city": "Kingston upon Thames",
        "notes": "Freehold: Heineken"
      },
      "geometry": {
        "type": "Point",
        "coordinates": [
          -0.301619,
          51.410619
        ]
      }
    },
    {
      "type": "Feature",
      "properties": {
        "name": "Willoughby Arms",
        "add": "47 Willoughby Road, Kingston Upon Thames",
        "postcode": "KT2 6LN",
        "owner": "Tavern Property Co",
        "status": "open",
        "lat": 51.416238,
        "long": -0.292429,
        "city": "Kingston upon Thames",
        "notes": ""
      },
      "geometry": {
        "type": "Point",
        "coordinates": [
          -0.292429,
          51.416238
        ]
      }
    },
    {
      "type": "Feature",
      "properties": {
        "name": "Woodies Freehouse",
        "add": "Woodies, Thetford Road, New Malden",
        "postcode": "KT3 5DX",
        "owner": "Independent",
        "status": "open",
        "lat": 51.392212,
        "long": -0.267399,
        "city": "Kingston upon Thames",
        "notes": ""
      },
      "geometry": {
        "type": "Point",
        "coordinates": [
          -0.267399,
          51.392212
        ]
      }
    },
    {
      "type": "Feature",
      "properties": {
        "name": "Woody's",
        "add": "5 Ram Passage, Kingston Upon Thames",
        "postcode": "KT1 1HH",
        "owner": "Independent",
        "status": "closed",
        "lat": 51.408438,
        "long": -0.308364,
        "city": "Kingston upon Thames",
        "notes": ""
      },
      "geometry": {
        "type": "Point",
        "coordinates": [
          -0.308364,
          51.408438
        ]
      }
    }
  ]
}