{
  "type": "FeatureCollection",
  "features": [
    {
      "type": "Feature",
      "properties": {
        "name": "All Inn One",
        "add": "Foresters Arms, 53 Perry Vale, Forest Hill, London",
        "postcode": "SE23 2NE",
        "owner": "Fauna Brewing",
        "status": "open",
        "lat": 51.438512,
        "long": -0.052502,
        "city": "Lewisham",
        "notes": ""
      },
      "geometry": {
        "type": "Point",
        "coordinates": [
          -0.052502,
          51.438512
        ]
      }
    },
    {
      "type": "Feature",
      "properties": {
        "name": "Bellingham Ex-servicemen's club",
        "add": "Bellingham Club, Allerford Road, London",
        "postcode": "SE6 3DD",
        "owner": "Independent",
        "status": "open",
        "lat": 51.43094,
        "long": -0.017026,
        "city": "Lewisham",
        "notes": ""
      },
      "geometry": {
        "type": "Point",
        "coordinates": [
          -0.017026,
          51.43094
        ]
      }
    },
    {
      "type": "Feature",
      "properties": {
        "name": "Bird In Hand",
        "add": "Bird in Hand, Bird In Hand, 35 Dartmouth Road, London",
        "postcode": "SE23 3HN",
        "owner": "Antic",
        "status": "open",
        "lat": 51.437956,
        "long": -0.05418,
        "city": "Lewisham",
        "notes": ""
      },
      "geometry": {
        "type": "Point",
        "coordinates": [
          -0.05418,
          51.437956
        ]
      }
    },
    {
      "type": "Feature",
      "properties": {
        "name": "Blythe Hill Tavern",
        "add": "The Blythe Hotel, 319 Stanstead Road, Catford, London",
        "postcode": "SE23 1JB",
        "owner": "Independent",
        "status": "open",
        "lat": 51.442493,
        "long": -0.034959,
        "city": "Lewisham",
        "notes": ""
      },
      "geometry": {
        "type": "Point",
        "coordinates": [
          -0.034959,
          51.442493
        ]
      }
    },
    {
      "type": "Feature",
      "properties": {
        "name": "Brookmill Pub",
        "add": "The Brookmill Pub, 65 Cranbrook Road, London",
        "postcode": "SE8 4EJ",
        "owner": "Independent",
        "status": "open",
        "lat": 51.470963,
        "long": -0.02215,
        "city": "Lewisham",
        "notes": ""
      },
      "geometry": {
        "type": "Point",
        "coordinates": [
          -0.02215,
          51.470963
        ]
      }
    },
    {
      "type": "Feature",
      "properties": {
        "name": "Catford Bridge Tavern",
        "add": "Catford Bridge Tavern Pub, Catford Road, London",
        "postcode": "SE6 4PZ",
        "owner": "Portobello Brewery",
        "status": "open",
        "lat": 51.444671,
        "long": -0.02448,
        "city": "Lewisham",
        "notes": ""
      },
      "geometry": {
        "type": "Point",
        "coordinates": [
          -0.02448,
          51.444671
        ]
      }
    },
    {
      "type": "Feature",
      "properties": {
        "name": "Crofton Park Tavern",
        "add": "332 Brockley Road, Crofton Park, London",
        "postcode": "SE4 2BT",
        "owner": "Mosaic Pub & Dining",
        "status": "open",
        "lat": 51.456118,
        "long": -0.036677,
        "city": "Lewisham",
        "notes": ""
      },
      "geometry": {
        "type": "Point",
        "coordinates": [
          -0.036677,
          51.456118
        ]
      }
    },
    {
      "type": "Feature",
      "properties": {
        "name": "Dirty South",
        "add": "162 Lee High Road, London",
        "postcode": "SE13 5PR",
        "owner": "Unknown",
        "status": "closed",
        "lat": 51.459311,
        "long": -0.003733,
        "city": "Lewisham",
        "notes": ""
      },
      "geometry": {
        "type": "Point",
        "coordinates": [
          -0.003733,
          51.459311
        ]
      }
    },
    {
      "type": "Feature",
      "properties": {
        "name": "Sarah's Place",
        "add": "214 Hither Green Lane, Hither Green, London",
        "postcode": "SE13 6RT",
        "owner": "Independent",
        "status": "open",
        "lat": 51.450865,
        "long": -0.006309,
        "city": "Lewisham",
        "notes": ""
      },
      "geometry": {
        "type": "Point",
        "coordinates": [
          -0.006309,
          51.450865
        ]
      }
    },
    {
      "type": "Feature",
      "properties": {
        "name": "Duke of Edinburgh",
        "add": "Duke Of Edinburgh Public House, 394 Lee High Road, London",
        "postcode": "SE12 8RW",
        "owner": "Independent",
        "status": "open",
        "lat": 51.456457,
        "long": 0.010666,
        "city": "Lewisham",
        "notes": ""
      },
      "geometry": {
        "type": "Point",
        "coordinates": [
          0.010666,
          51.456457
        ]
      }
    },
    {
      "type": "Feature",
      "properties": {
        "name": "Earl of Derby",
        "add": "Earl Of Derby, 87 Dennetts Road, London",
        "postcode": "SE14 5LW",
        "owner": "Parched",
        "status": "open",
        "lat": 51.470349,
        "long": -0.050436,
        "city": "Lewisham",
        "notes": ""
      },
      "geometry": {
        "type": "Point",
        "coordinates": [
          -0.050436,
          51.470349
        ]
      }
    },
    {
      "type": "Feature",
      "properties": {
        "name": "Five Bells",
        "add": "155 New Cross Road, London",
        "postcode": "SE14 5DJ",
        "owner": "Stonegate",
        "status": "open",
        "lat": 51.476037,
        "long": -0.047472,
        "city": "Lewisham",
        "notes": ""
      },
      "geometry": {
        "type": "Point",
        "coordinates": [
          -0.047472,
          51.476037
        ]
      }
    },
    {
      "type": "Feature",
      "properties": {
        "name": "Fox's",
        "add": "Fox and Hounds, Fox And Hounds, 150 Kirkdale, London",
        "postcode": "SE26 4BB",
        "owner": "Town Centre Inns",
        "status": "open",
        "lat": 51.430948,
        "long": -0.060017,
        "city": "Lewisham",
        "notes": ""
      },
      "geometry": {
        "type": "Point",
        "coordinates": [
          -0.060017,
          51.430948
        ]
      }
    },
    {
      "type": "Feature",
      "properties": {
        "name": "Hare & Billet",
        "add": "Hare And Billet, 1A Eliot Cottages, Hare And Billet Road, Blackheath",
        "postcode": "SE3 0QJ",
        "owner": "Greene King",
        "status": "open",
        "lat": 51.467863,
        "long": 0.003632,
        "city": "Lewisham",
        "notes": ""
      },
      "geometry": {
        "type": "Point",
        "coordinates": [
          0.003632,
          51.467863
        ]
      }
    },
    {
      "type": "Feature",
      "properties": {
        "name": "Hill",
        "add": "The Hill, 45-47 Dartmouth Road, London",
        "postcode": "SE23 3HN",
        "owner": "Stonegate",
        "status": "open",
        "lat": 51.437805,
        "long": -0.054282,
        "city": "Lewisham",
        "notes": ""
      },
      "geometry": {
        "type": "Point",
        "coordinates": [
          -0.054282,
          51.437805
        ]
      }
    },
    {
      "type": "Feature",
      "properties": {
        "name": "Hither Green Railway Club",
        "add": "19 Beacon Road, Hither Green, London",
        "postcode": "SE13 6EQ",
        "owner": "Hither Green & District Railwaymens Social Club",
        "status": "open",
        "lat": 51.451598,
        "long": -0.005451,
        "city": "Lewisham",
        "notes": ""
      },
      "geometry": {
        "type": "Point",
        "coordinates": [
          -0.005451,
          51.451598
        ]
      }
    },
    {
      "type": "Feature",
      "properties": {
        "name": "Joyce",
        "add": "294 - 296 Brockley Road, Crofton Park, London",
        "postcode": "SE4 2RA",
        "owner": "Independent",
        "status": "open",
        "lat": 51.45916,
        "long": -0.034205,
        "city": "Lewisham",
        "notes": ""
      },
      "geometry": {
        "type": "Point",
        "coordinates": [
          -0.034205,
          51.45916
        ]
      }
    },
    {
      "type": "Feature",
      "properties": {
        "name": "Ladywell Tavern",
        "add": "80 Ladywell Road, Ladywell, London",
        "postcode": "SE13 7HS",
        "owner": "Punch Pubs & Co\u00a0(Punch Taverns)",
        "status": "open",
        "lat": 51.456302,
        "long": -0.021426,
        "city": "Lewisham",
        "notes": ""
      },
      "geometry": {
        "type": "Point",
        "coordinates": [
          -0.021426,
          51.456302
        ]
      }
    },
    {
      "type": "Feature",
      "properties": {
        "name": "Lewisham Tavern",
        "add": "The White Horse, 1 Lee High Road, London",
        "postcode": "SE13 5LD",
        "owner": "Stonegate",
        "status": "open",
        "lat": 51.462341,
        "long": -0.008453,
        "city": "Lewisham",
        "notes": ""
      },
      "geometry": {
        "type": "Point",
        "coordinates": [
          -0.008453,
          51.462341
        ]
      }
    },
    {
      "type": "Feature",
      "properties": {
        "name": "Little Faith",
        "add": "G 10 The Artworks, 3 Creekside, London",
        "postcode": "SE8 4SA",
        "owner": "Independent",
        "status": "open",
        "lat": 51.476245,
        "long": -0.022339,
        "city": "Lewisham",
        "notes": ""
      },
      "geometry": {
        "type": "Point",
        "coordinates": [
          -0.022339,
          51.476245
        ]
      }
    },
    {
      "type": "Feature",
      "properties": {
        "name": "Marquis of Granby",
        "add": "322 New Cross Road, London",
        "postcode": "SE14 6AG",
        "owner": "Independent",
        "status": "open",
        "lat": 51.475671,
        "long": -0.03421,
        "city": "Lewisham",
        "notes": ""
      },
      "geometry": {
        "type": "Point",
        "coordinates": [
          -0.03421,
          51.475671
        ]
      }
    },
    {
      "type": "Feature",
      "properties": {
        "name": "Meatliquor",
        "add": "The Dartmouth Arms, 7 Dartmouth Road, London",
        "postcode": "SE23 3HN",
        "owner": "Meatliquor",
        "status": "closed",
        "lat": 51.438659,
        "long": -0.053748,
        "city": "Lewisham",
        "notes": ""
      },
      "geometry": {
        "type": "Point",
        "coordinates": [
          -0.053748,
          51.438659
        ]
      }
    },
    {
      "type": "Feature",
      "properties": {
        "name": "New Cross Inn",
        "add": "323 New Cross Road, London",
        "postcode": "SE14 6AS",
        "owner": "Independent",
        "status": "open",
        "lat": 51.475623,
        "long": -0.038288,
        "city": "Lewisham",
        "notes": ""
      },
      "geometry": {
        "type": "Point",
        "coordinates": [
          -0.038288,
          51.475623
        ]
      }
    },
    {
      "type": "Feature",
      "properties": {
        "name": "Orange Buffalo",
        "add": "Catford Bridge Tavern Station Approach, Catford Road, London",
        "postcode": "SE6 4RE",
        "owner": "Portobello Brewery",
        "status": "open",
        "lat": 51.444671,
        "long": -0.02448,
        "city": "Lewisham",
        "notes": ""
      },
      "geometry": {
        "type": "Point",
        "coordinates": [
          -0.02448,
          51.444671
        ]
      }
    },
    {
      "type": "Feature",
      "properties": {
        "name": "Prince of Wales",
        "add": "Prince Of Wales, 52 Perry Rise, London",
        "postcode": "SE23 2QL",
        "owner": "Heineken",
        "status": "closed",
        "lat": 51.433642,
        "long": -0.042494,
        "city": "Lewisham",
        "notes": ""
      },
      "geometry": {
        "type": "Point",
        "coordinates": [
          -0.042494,
          51.433642
        ]
      }
    },
    {
      "type": "Feature",
      "properties": {
        "name": "Princess of Wales",
        "add": "1A Montpelier Row, Blackheath, London",
        "postcode": "SE3 0RL",
        "owner": "Mitchells & Butlers",
        "status": "open",
        "lat": 51.468229,
        "long": 0.009629,
        "city": "Lewisham",
        "notes": ""
      },
      "geometry": {
        "type": "Point",
        "coordinates": [
          0.009629,
          51.468229
        ]
      }
    },
    {
      "type": "Feature",
      "properties": {
        "name": "Railway Tavern",
        "add": "401 Southend Lane, Bellingham, London",
        "postcode": "SE26 5BH",
        "owner": "Independent",
        "status": "open",
        "lat": 51.428022,
        "long": -0.033839,
        "city": "Lewisham",
        "notes": ""
      },
      "geometry": {
        "type": "Point",
        "coordinates": [
          -0.033839,
          51.428022
        ]
      }
    },
    {
      "type": "Feature",
      "properties": {
        "name": "Rising Sun",
        "add": "The Rising Sun, 120 Loampit Vale, Lewisham, London",
        "postcode": "SE13 7SN",
        "owner": "Stonegate",
        "status": "open",
        "lat": 51.465507,
        "long": -0.018047,
        "city": "Lewisham",
        "notes": ""
      },
      "geometry": {
        "type": "Point",
        "coordinates": [
          -0.018047,
          51.465507
        ]
      }
    },
    {
      "type": "Feature",
      "properties": {
        "name": "Royal Albert",
        "add": "460 New Cross Road, London",
        "postcode": "SE14 6TJ",
        "owner": "Portobello Brewery",
        "status": "open",
        "lat": 51.474895,
        "long": -0.027058,
        "city": "Lewisham",
        "notes": ""
      },
      "geometry": {
        "type": "Point",
        "coordinates": [
          -0.027058,
          51.474895
        ]
      }
    },
    {
      "type": "Feature",
      "properties": {
        "name": "Royal Standard",
        "add": "Royal Standard Pub, Royal Standard, 86 Tanners Hill, London",
        "postcode": "SE8 4PN",
        "owner": "Venture Hostels Ltd",
        "status": "open",
        "lat": 51.473624,
        "long": -0.027434,
        "city": "Lewisham",
        "notes": ""
      },
      "geometry": {
        "type": "Point",
        "coordinates": [
          -0.027434,
          51.473624
        ]
      }
    },
    {
      "type": "Feature",
      "properties": {
        "name": "Signal Forest Hill",
        "add": "The Signal, 7 Devonshire Road, London",
        "postcode": "SE23 3HE",
        "owner": "Stonegate",
        "status": "open",
        "lat": 51.43968837,
        "long": -0.053980192,
        "city": "Lewisham",
        "notes": ""
      },
      "geometry": {
        "type": "Point",
        "coordinates": [
          -0.053980192,
          51.43968837
        ]
      }
    },
    {
      "type": "Feature",
      "properties": {
        "name": "Skehans Freehouse",
        "add": "1 Kitto Road, London",
        "postcode": "SE14 5TW",
        "owner": "Independent",
        "status": "open",
        "lat": 51.467648,
        "long": -0.048608,
        "city": "Lewisham",
        "notes": ""
      },
      "geometry": {
        "type": "Point",
        "coordinates": [
          -0.048608,
          51.467648
        ]
      }
    },
    {
      "type": "Feature",
      "properties": {
        "name": "Suttons Radio",
        "add": "The Market Tavern, 139-141 Lewisham High Street, Hither Green, London",
        "postcode": "SE13 6AA",
        "owner": "Antic",
        "status": "closed",
        "lat": 51.460889,
        "long": -0.010349,
        "city": "Lewisham",
        "notes": ""
      },
      "geometry": {
        "type": "Point",
        "coordinates": [
          -0.010349,
          51.460889
        ]
      }
    },
    {
      "type": "Feature",
      "properties": {
        "name": "The\u00a0 Alfred",
        "add": "178 Sydenham Road, London",
        "postcode": "SE26 5RP",
        "owner": "Town Centre Inns",
        "status": "open",
        "lat": 51.425835,
        "long": -0.042895,
        "city": "Lewisham",
        "notes": ""
      },
      "geometry": {
        "type": "Point",
        "coordinates": [
          -0.042895,
          51.425835
        ]
      }
    },
    {
      "type": "Feature",
      "properties": {
        "name": "The Anchor",
        "add": "Anchor, 165 Lewisham Road, Ladywell, London",
        "postcode": "SE13 7PY",
        "owner": "Independent",
        "status": "open",
        "lat": 51.46568,
        "long": -0.010712,
        "city": "Lewisham",
        "notes": ""
      },
      "geometry": {
        "type": "Point",
        "coordinates": [
          -0.010712,
          51.46568
        ]
      }
    },
    {
      "type": "Feature",
      "properties": {
        "name": "The Bell Flex",
        "add": "The Bell, 59 Bell Green, London",
        "postcode": "SE26 5SJ",
        "owner": "Independent",
        "status": "open",
        "lat": 51.428836,
        "long": -0.036854,
        "city": "Lewisham",
        "notes": ""
      },
      "geometry": {
        "type": "Point",
        "coordinates": [
          -0.036854,
          51.428836
        ]
      }
    },
    {
      "type": "Feature",
      "properties": {
        "name": "The Birds Nest",
        "add": "32 Deptford Church Street, London",
        "postcode": "SE8 4RZ",
        "owner": "Independent",
        "status": "open",
        "lat": 51.474842,
        "long": -0.023374,
        "city": "Lewisham",
        "notes": ""
      },
      "geometry": {
        "type": "Point",
        "coordinates": [
          -0.023374,
          51.474842
        ]
      }
    },
    {
      "type": "Feature",
      "properties": {
        "name": "The Bricklayers Arms",
        "add": "Bricklayers Arms, 189 Dartmouth Road, London",
        "postcode": "SE26 4QY",
        "owner": "Independent",
        "status": "open",
        "lat": 51.432351,
        "long": -0.059952,
        "city": "Lewisham",
        "notes": ""
      },
      "geometry": {
        "type": "Point",
        "coordinates": [
          -0.059952,
          51.432351
        ]
      }
    },
    {
      "type": "Feature",
      "properties": {
        "name": "The Brockley Barge",
        "add": "184 Brockley Road, Crofton Park, London",
        "postcode": "SE4 2RR",
        "owner": "JD Wetherspoon",
        "status": "open",
        "lat": 51.464073,
        "long": -0.036508,
        "city": "Lewisham",
        "notes": ""
      },
      "geometry": {
        "type": "Point",
        "coordinates": [
          -0.036508,
          51.464073
        ]
      }
    },
    {
      "type": "Feature",
      "properties": {
        "name": "The Catford Bridge Tavern",
        "add": "Catford Bridge Tavern Station Approach, Catford Road, London",
        "postcode": "SE6 4RE",
        "owner": "Portobello Brewery",
        "status": "open",
        "lat": 51.444671,
        "long": -0.02448,
        "city": "Lewisham",
        "notes": ""
      },
      "geometry": {
        "type": "Point",
        "coordinates": [
          -0.02448,
          51.444671
        ]
      }
    },
    {
      "type": "Feature",
      "properties": {
        "name": "The Chandos",
        "add": "56 Brockley Rise, Crofton Park, London",
        "postcode": "SE23 1LN",
        "owner": "Highpress",
        "status": "open",
        "lat": 51.447677,
        "long": -0.041203,
        "city": "Lewisham",
        "notes": ""
      },
      "geometry": {
        "type": "Point",
        "coordinates": [
          -0.041203,
          51.447677
        ]
      }
    },
    {
      "type": "Feature",
      "properties": {
        "name": "The Crown",
        "add": "Flat At The Crown, 117 Burnt Ash Hill, London",
        "postcode": "SE12 0AJ",
        "owner": "Young's",
        "status": "open",
        "lat": 51.443691,
        "long": 0.017771,
        "city": "Lewisham",
        "notes": ""
      },
      "geometry": {
        "type": "Point",
        "coordinates": [
          0.017771,
          51.443691
        ]
      }
    },
    {
      "type": "Feature",
      "properties": {
        "name": "The Crown (Blackheath)",
        "add": "The Crown, 49 Tranquil Vale, Blackheath, London",
        "postcode": "SE3 0BS",
        "owner": "Shepherd Neame",
        "status": "open",
        "lat": 51.466606,
        "long": 0.007196,
        "city": "Lewisham",
        "notes": ""
      },
      "geometry": {
        "type": "Point",
        "coordinates": [
          0.007196,
          51.466606
        ]
      }
    },
    {
      "type": "Feature",
      "properties": {
        "name": "The Dacre Arm's",
        "add": "Dacre Arms, 11 Kingswood Place, London",
        "postcode": "SE13 5BU",
        "owner": "Independent",
        "status": "open",
        "lat": 51.460943,
        "long": 0.003373,
        "city": "Lewisham",
        "notes": ""
      },
      "geometry": {
        "type": "Point",
        "coordinates": [
          0.003373,
          51.460943
        ]
      }
    },
    {
      "type": "Feature",
      "properties": {
        "name": "The Dog & Bell",
        "add": "Dog And Bell, 116 Prince Street, London",
        "postcode": "SE8 3JD",
        "owner": "Independent",
        "status": "open",
        "lat": 51.483301,
        "long": -0.025874,
        "city": "Lewisham",
        "notes": ""
      },
      "geometry": {
        "type": "Point",
        "coordinates": [
          -0.025874,
          51.483301
        ]
      }
    },
    {
      "type": "Feature",
      "properties": {
        "name": "The Dolphin",
        "add": "121 Sydenham Road, London",
        "postcode": "SE26 5HB",
        "owner": "Inn Public Ltd",
        "status": "open",
        "lat": 51.425868,
        "long": -0.047583,
        "city": "Lewisham",
        "notes": ""
      },
      "geometry": {
        "type": "Point",
        "coordinates": [
          -0.047583,
          51.425868
        ]
      }
    },
    {
      "type": "Feature",
      "properties": {
        "name": "The Downham Tavern",
        "add": "Downham Tavern, Downham Way, Bromley",
        "postcode": "BR1 5HS",
        "owner": "777 Leisure Ltd",
        "status": "closed",
        "lat": 51.427801,
        "long": 0.013091,
        "city": "Lewisham",
        "notes": ""
      },
      "geometry": {
        "type": "Point",
        "coordinates": [
          0.013091,
          51.427801
        ]
      }
    },
    {
      "type": "Feature",
      "properties": {
        "name": "The Fellowship Inn",
        "add": "Fellowship Inn, Randlesdown Road, Bellingham, London",
        "postcode": "SE6 3BT",
        "owner": "Homegrown Pubs & Bars",
        "status": "open",
        "lat": 51.432713,
        "long": -0.020234,
        "city": "Lewisham",
        "notes": ""
      },
      "geometry": {
        "type": "Point",
        "coordinates": [
          -0.020234,
          51.432713
        ]
      }
    },
    {
      "type": "Feature",
      "properties": {
        "name": "The Fox & Firkin",
        "add": "Flat Fox And Firkin, 316 Lewisham High Street, Hither Green, London",
        "postcode": "SE13 6JZ",
        "owner": "Whelans",
        "status": "open",
        "lat": 51.456983,
        "long": -0.014405,
        "city": "Lewisham",
        "notes": ""
      },
      "geometry": {
        "type": "Point",
        "coordinates": [
          -0.014405,
          51.456983
        ]
      }
    },
    {
      "type": "Feature",
      "properties": {
        "name": "The Genaral Napier-W G Moore Tavwens",
        "add": "The Genaral Napier, 73 Bovill Road, Crofton Park, London",
        "postcode": "SE23 1EX",
        "owner": "Independent",
        "status": "open",
        "lat": 51.445475,
        "long": -0.04455,
        "city": "Lewisham",
        "notes": ""
      },
      "geometry": {
        "type": "Point",
        "coordinates": [
          -0.04455,
          51.445475
        ]
      }
    },
    {
      "type": "Feature",
      "properties": {
        "name": "The Golden Lion PH Ltd",
        "add": "116 Sydenham Road, London",
        "postcode": "SE26 5JX",
        "owner": "Stonegate",
        "status": "open",
        "lat": 51.425569,
        "long": -0.048473,
        "city": "Lewisham",
        "notes": ""
      },
      "geometry": {
        "type": "Point",
        "coordinates": [
          -0.048473,
          51.425569
        ]
      }
    },
    {
      "type": "Feature",
      "properties": {
        "name": "The Greyhound",
        "add": "313-315 Kirkdale, London",
        "postcode": "SE26 4QB",
        "owner": "Unknown",
        "status": "open",
        "lat": 51.427141,
        "long": -0.055474,
        "city": "Lewisham",
        "notes": ""
      },
      "geometry": {
        "type": "Point",
        "coordinates": [
          -0.055474,
          51.427141
        ]
      }
    },
    {
      "type": "Feature",
      "properties": {
        "name": "The Honor Oak",
        "add": "1 St Germans Road, London",
        "postcode": "SE23 1RH",
        "owner": "Laine Pub Company",
        "status": "open",
        "lat": 51.443384,
        "long": -0.041526,
        "city": "Lewisham",
        "notes": ""
      },
      "geometry": {
        "type": "Point",
        "coordinates": [
          -0.041526,
          51.443384
        ]
      }
    },
    {
      "type": "Feature",
      "properties": {
        "name": "The Ladywell Tavern",
        "add": "Ladywell Tavern, 80 Ladywell Road, Ladywell, London",
        "postcode": "SE13 7HS",
        "owner": "Punch Pubs & Co",
        "status": "open",
        "lat": 51.456301,
        "long": -0.021425,
        "city": "Lewisham",
        "notes": ""
      },
      "geometry": {
        "type": "Point",
        "coordinates": [
          -0.021425,
          51.456301
        ]
      }
    },
    {
      "type": "Feature",
      "properties": {
        "name": "The London & Rye",
        "add": "London & Rye, 109 Rushey Green, London",
        "postcode": "SE6 4AF",
        "owner": "Independent",
        "status": "open",
        "lat": 51.446963,
        "long": -0.018006,
        "city": "Lewisham",
        "notes": ""
      },
      "geometry": {
        "type": "Point",
        "coordinates": [
          -0.018006,
          51.446963
        ]
      }
    },
    {
      "type": "Feature",
      "properties": {
        "name": "The Lord Northbrook",
        "add": "Flat At The Lord Northbrook, 116 Burnt Ash Road, London",
        "postcode": "SE12 8PU",
        "owner": "Fuller Smith & Turner",
        "status": "open",
        "lat": 51.45091,
        "long": 0.012145,
        "city": "Lewisham",
        "notes": ""
      },
      "geometry": {
        "type": "Point",
        "coordinates": [
          0.012145,
          51.45091
        ]
      }
    },
    {
      "type": "Feature",
      "properties": {
        "name": "The Old Tigers Head",
        "add": "Ye Old Tigers Head, 351 Lee High Road, London",
        "postcode": "SE12 8RU",
        "owner": "Independent",
        "status": "open",
        "lat": 51.45741,
        "long": 0.009139,
        "city": "Lewisham",
        "notes": ""
      },
      "geometry": {
        "type": "Point",
        "coordinates": [
          0.009139,
          51.45741
        ]
      }
    },
    {
      "type": "Feature",
      "properties": {
        "name": "The Railway",
        "add": "16 Blackheath Village, Blackheath, London",
        "postcode": "SE3 9LE",
        "owner": "Mitchells & Butlers",
        "status": "open",
        "lat": 51.465393,
        "long": 0.008707,
        "city": "Lewisham",
        "notes": ""
      },
      "geometry": {
        "type": "Point",
        "coordinates": [
          0.008707,
          51.465393
        ]
      }
    },
    {
      "type": "Feature",
      "properties": {
        "name": "The Rose Inn",
        "add": "272 New Cross Road, London",
        "postcode": "SE14 5UL",
        "owner": "Urban Pubs & Bars",
        "status": "open",
        "lat": 51.474676,
        "long": -0.042489,
        "city": "Lewisham",
        "notes": ""
      },
      "geometry": {
        "type": "Point",
        "coordinates": [
          -0.042489,
          51.474676
        ]
      }
    },
    {
      "type": "Feature",
      "properties": {
        "name": "The Royal George",
        "add": "85 Tanners Hill, London",
        "postcode": "SE8 4QD",
        "owner": "Samuel Smith",
        "status": "open",
        "lat": 51.471699,
        "long": -0.028967,
        "city": "Lewisham",
        "notes": ""
      },
      "geometry": {
        "type": "Point",
        "coordinates": [
          -0.028967,
          51.471699
        ]
      }
    },
    {
      "type": "Feature",
      "properties": {
        "name": "The Summerfield Pub",
        "add": "60 Baring Road, London",
        "postcode": "SE12 0PS",
        "owner": "Independent",
        "status": "open",
        "lat": 51.443195,
        "long": 0.014717,
        "city": "Lewisham",
        "notes": ""
      },
      "geometry": {
        "type": "Point",
        "coordinates": [
          0.014717,
          51.443195
        ]
      }
    },
    {
      "type": "Feature",
      "properties": {
        "name": "The Talbot",
        "add": "2 Tyrwhitt Road, London",
        "postcode": "SE4 1QG",
        "owner": "Little & Large Pub Company",
        "status": "open",
        "lat": 51.467249,
        "long": -0.023779,
        "city": "Lewisham",
        "notes": ""
      },
      "geometry": {
        "type": "Point",
        "coordinates": [
          -0.023779,
          51.467249
        ]
      }
    },
    {
      "type": "Feature",
      "properties": {
        "name": "The Victoria",
        "add": "177 Grove Street, London",
        "postcode": "SE8 3QQ",
        "owner": "Lendlease",
        "status": "closed",
        "lat": 51.487897,
        "long": -0.034467,
        "city": "Lewisham",
        "notes": ""
      },
      "geometry": {
        "type": "Point",
        "coordinates": [
          -0.034467,
          51.487897
        ]
      }
    },
    {
      "type": "Feature",
      "properties": {
        "name": "The Watch House",
        "add": "198-204 Lewisham High Street, Hither Green, London",
        "postcode": "SE13 6JP",
        "owner": "JD Wetherspoon",
        "status": "open",
        "lat": 51.45984,
        "long": -0.012103,
        "city": "Lewisham",
        "notes": ""
      },
      "geometry": {
        "type": "Point",
        "coordinates": [
          -0.012103,
          51.45984
        ]
      }
    }
  ]
}