{
"type": "FeatureCollection",
"name": "Wandsworth_pubsFinal",
"features": [
{ "type": "Feature", "properties": { "name": "Asparagus", "add": "The Asparagus Public House, 1-13 Falcon Road, London", "postcode": "SW11 2PL", "owner": "Portobello Pub Company", "lat": 51.469896, "long": -0.171322, "city": "Wandsworth", "notes": "OWNED BY ZETLAND CAPITAL", "website": "https://www.zetlandcapital.com/insights/portobello-starboard/", "history": "" }, "geometry": { "type": "Point", "coordinates": [ -0.171322, 51.469896 ] } },
{ "type": "Feature", "properties": { "name": "Balham Bowls Club", "add": "Balham Club, 7-9 Ramsden Road, London", "postcode": "SW12 8QX", "owner": "Urban Pubs and Bars", "lat": 51.444881, "long": -0.152445, "city": "Wandsworth", "notes": "PREV. ANTIC hospitality group", "website": "https://www.thecaterer.com/news/portfolio-of-antic-pubs-and-bars-enter-administration#:~:text=A%20collection%20of%2013%20London,being%20put%20up%20for%20sale", "history": "" }, "geometry": { "type": "Point", "coordinates": [ -0.152445, 51.444881 ] } },
{ "type": "Feature", "properties": { "name": "Be At One", "add": "30 Putney High Street, London", "postcode": "SW15 1SQ", "owner": "Stonegate", "lat": 51.465252, "long": -0.214843, "city": "Wandsworth", "notes": "", "website": "", "history": "" }, "geometry": { "type": "Point", "coordinates": [ -0.214843, 51.465252 ] } },
{ "type": "Feature", "properties": { "name": "Be At One", "add": "85 Battersea Rise, London", "postcode": "SW11 1HW", "owner": "Stonegate", "lat": 51.460662, "long": -0.167401, "city": "Wandsworth", "notes": "", "website": "", "history": "" }, "geometry": { "type": "Point", "coordinates": [ -0.167401, 51.460662 ] } },
{ "type": "Feature", "properties": { "name": "Beehive PH", "add": "197 St Johns Hill, London", "postcode": "SW11 1TH", "owner": "Lee and Keris De Villiers", "lat": 51.459825, "long": -0.178225, "city": "Wandsworth", "notes": "", "website": "", "history": "" }, "geometry": { "type": "Point", "coordinates": [ -0.178225, 51.459825 ] } },
{ "type": "Feature", "properties": { "name": "Boom Battle Bar (Primary Licence)", "add": "89&11 Barley Walk, London", "postcode": "SW18 1UL", "owner": "Boom Battle Bar", "lat": 51.458002, "long": -0.19362, "city": "Wandsworth", "notes": "Axe-throwing bar", "website": "", "history": "" }, "geometry": { "type": "Point", "coordinates": [ -0.19362, 51.458002 ] } },
{ "type": "Feature", "properties": { "name": "Brewers Inn", "add": "Brewers Inn", "postcode": "SW18 2QB", "owner": "Young's", "lat": 51.456715, "long": -0.189366, "city": "Wandsworth", "notes": "", "website": "", "history": "" }, "geometry": { "type": "Point", "coordinates": [ -0.189366, 51.456715 ] } },
{ "type": "Feature", "properties": { "name": "Bricklayer's Arms", "add": "32 Waterman Street, London", "postcode": "SW15 1DD", "owner": "Independent", "lat": 51.466054, "long": -0.216755, "city": "Wandsworth", "notes": "", "website": "", "history": "" }, "geometry": { "type": "Point", "coordinates": [ -0.216755, 51.466054 ] } },
{ "type": "Feature", "properties": { "name": "Churchill's", "add": "Churchill's", "postcode": "SW11 1TQ", "owner": "Woolwich Tavern Co", "lat": 51.460165, "long": -0.177045, "city": "Wandsworth", "notes": "", "website": "", "history": "" }, "geometry": { "type": "Point", "coordinates": [ -0.177045, 51.460165 ] } },
{ "type": "Feature", "properties": { "name": "Country House", "add": "4 Groton Road, London", "postcode": "SW18 4EP", "owner": "Independent", "lat": 51.442038, "long": -0.188984, "city": "Wandsworth", "notes": "", "website": "", "history": "" }, "geometry": { "type": "Point", "coordinates": [ -0.188984, 51.442038 ] } },
{ "type": "Feature", "properties": { "name": "County Arms Public House", "add": "345 Trinity Road, Wandsworth, London", "postcode": "SW18 3SH", "owner": "Young's", "lat": 51.450094, "long": -0.174243, "city": "Wandsworth", "notes": "", "website": "", "history": "" }, "geometry": { "type": "Point", "coordinates": [ -0.174243, 51.450094 ] } },
{ "type": "Feature", "properties": { "name": "Duchess Belle", "add": "101 Battersea Park Road, London", "postcode": "SW8 4DS", "owner": "Belle Pubs and Restaurants", "lat": 51.479163, "long": -0.142465, "city": "Wandsworth", "notes": "", "website": "", "history": "" }, "geometry": { "type": "Point", "coordinates": [ -0.142465, 51.479163 ] } },
{ "type": "Feature", "properties": { "name": "Duke Of Cambridge", "add": "228 Battersea Bridge Road, London", "postcode": "SW11 3AA", "owner": "Young's", "lat": 51.472856, "long": -0.166236, "city": "Wandsworth", "notes": "", "website": "", "history": "" }, "geometry": { "type": "Point", "coordinates": [ -0.166236, 51.472856 ] } },
{ "type": "Feature", "properties": { "name": "Dukes Head", "add": "8 Lower Richmond Road, London", "postcode": "SW15 1JN", "owner": "Young's", "lat": 51.467292, "long": -0.217124, "city": "Wandsworth", "notes": "", "website": "", "history": "" }, "geometry": { "type": "Point", "coordinates": [ -0.217124, 51.467292 ] } },
{ "type": "Feature", "properties": { "name": "Eagle Public House", "add": "The Eagle, 104 Chatham Road, London", "postcode": "SW11 6HG", "owner": "S.P.S Pubs Ltd", "lat": 51.455027, "long": -0.163619, "city": "Wandsworth", "notes": "", "website": "", "history": "" }, "geometry": { "type": "Point", "coordinates": [ -0.163619, 51.455027 ] } },
{ "type": "Feature", "properties": { "name": "Fox and Hounds", "add": "66 Latchmere Road, London", "postcode": "SW11 2JU", "owner": "Stonegate", "lat": 51.46713, "long": -0.16294, "city": "Wandsworth", "notes": "", "website": "", "history": "" }, "geometry": { "type": "Point", "coordinates": [ -0.16294, 51.46713 ] } },
{ "type": "Feature", "properties": { "name": "Graveney & Meadow", "add": "Graveney And Meadow, 40 Mitcham Road, London", "postcode": "SW17 9NA", "owner": "", "lat": 51.426924, "long": -0.166996, "city": "Wandsworth", "notes": "", "website": "", "history": "" }, "geometry": { "type": "Point", "coordinates": [ -0.166996, 51.426924 ] } },
{ "type": "Feature", "properties": { "name": "Grosvenor Arms", "add": "204 Garratt Lane, London", "postcode": "SW18 4ED", "owner": "Independent", "lat": 51.447356, "long": -0.189593, "city": "Wandsworth", "notes": "", "website": "", "history": "" }, "geometry": { "type": "Point", "coordinates": [ -0.189593, 51.447356 ] } },
{ "type": "Feature", "properties": { "name": "Hagen & Hyde", "add": "157 Balham High Road, London", "postcode": "SW12 9AU", "owner": "Urban Pubs and Bars", "lat": 51.443829, "long": -0.152029, "city": "Wandsworth", "notes": "", "website": "", "history": "" }, "geometry": { "type": "Point", "coordinates": [ -0.152029, 51.443829 ] } },
{ "type": "Feature", "properties": { "name": "Halfway House", "add": "521 Garratt Lane, London", "postcode": "SW18 4SR", "owner": "Young's", "lat": 51.441699, "long": -0.187263, "city": "Wandsworth", "notes": "", "website": "", "history": "" }, "geometry": { "type": "Point", "coordinates": [ -0.187263, 51.441699 ] } },
{ "type": "Feature", "properties": { "name": "Hawkins Forge", "add": "110 Battersea Rise, London", "postcode": "SW11 1EJ", "owner": "Mitchells & Butlers", "lat": 51.460721, "long": -0.16905, "city": "Wandsworth", "notes": "", "website": "", "history": "" }, "geometry": { "type": "Point", "coordinates": [ -0.16905, 51.460721 ] } },
{ "type": "Feature", "properties": { "name": "J J Moons", "add": "56A Tooting High Street, London", "postcode": "SW17 0RN", "owner": "JD Wetherspoon", "lat": 51.427918, "long": -0.168519, "city": "Wandsworth", "notes": "", "website": "", "history": "" }, "geometry": { "type": "Point", "coordinates": [ -0.168519, 51.427918 ] } },
{ "type": "Feature", "properties": { "name": "Junction", "add": "The Junction Public House, 36 St Johns Hill, London", "postcode": "SW11 1SA", "owner": "Greene King", "lat": 51.463344, "long": -0.169842, "city": "Wandsworth", "notes": "", "website": "", "history": "" }, "geometry": { "type": "Point", "coordinates": [ -0.169842, 51.463344 ] } },
{ "type": "Feature", "properties": { "name": "Kings Head Public House", "add": "1 Roehampton High Street, London", "postcode": "SW15 4HL", "owner": "Young's", "lat": 51.450257, "long": -0.240758, "city": "Wandsworth", "notes": "", "website": "", "history": "" }, "geometry": { "type": "Point", "coordinates": [ -0.240758, 51.450257 ] } },
{ "type": "Feature", "properties": { "name": "Masons Arms", "add": "169 Battersea Park Road, London", "postcode": "SW8 4BT", "owner": "Fuller Smith & Turner", "lat": 51.476778, "long": -0.146868, "city": "Wandsworth", "notes": "", "website": "", "history": "" }, "geometry": { "type": "Point", "coordinates": [ -0.146868, 51.476778 ] } },
{ "type": "Feature", "properties": { "name": "Mayfair Tavern", "add": "127-145 Upper Tooting Road, London", "postcode": "SW17 7TJ", "owner": "Independent", "lat": 51.432326, "long": -0.163384, "city": "Wandsworth", "notes": "", "website": "", "history": "" }, "geometry": { "type": "Point", "coordinates": [ -0.163384, 51.432326 ] } },
{ "type": "Feature", "properties": { "name": "Old Fields", "add": "20 Replingham Road, London", "postcode": "SW18 5LS", "owner": "Greene King", "lat": 51.444646, "long": -0.205184, "city": "Wandsworth", "notes": "", "website": "", "history": "" }, "geometry": { "type": "Point", "coordinates": [ -0.205184, 51.444646 ] } },
{ "type": "Feature", "properties": { "name": "Paya & Horse", "add": "181 Battersea Park Road, London", "postcode": "SW11 4LB", "owner": "Independent", "lat": 51.475812, "long": -0.148894, "city": "Wandsworth", "notes": "", "website": "", "history": "" }, "geometry": { "type": "Point", "coordinates": [ -0.148894, 51.475812 ] } },
{ "type": "Feature", "properties": { "name": "Pig And Whistle", "add": "479-481 Merton Road, London", "postcode": "SW18 5LD", "owner": "Grumpy pub company", "lat": 51.441071, "long": -0.196705, "city": "Wandsworth", "notes": "", "website": "", "history": "" }, "geometry": { "type": "Point", "coordinates": [ -0.196705, 51.441071 ] } },
{ "type": "Feature", "properties": { "name": "Plough Public House", "add": "89-91 St Johns Hill, London", "postcode": "SW11 1SY", "owner": "Adventure Bar Group", "lat": 51.461474, "long": -0.173299, "city": "Wandsworth", "notes": "", "website": "", "history": "" }, "geometry": { "type": "Point", "coordinates": [ -0.173299, 51.461474 ] } },
{ "type": "Feature", "properties": { "name": "Prince of Wales", "add": "138 Upper Richmond Road, London", "postcode": "SW15 2SP", "owner": "Mosaic pub and dining", "lat": 51.460146, "long": -0.212624, "city": "Wandsworth", "notes": "", "website": "", "history": "" }, "geometry": { "type": "Point", "coordinates": [ -0.212624, 51.460146 ] } },
{ "type": "Feature", "properties": { "name": "Queen Adelaide", "add": "35 Putney Bridge Road, London", "postcode": "SW18 1NP", "owner": "Young's", "lat": 51.459898, "long": -0.199346, "city": "Wandsworth", "notes": "", "website": "", "history": "" }, "geometry": { "type": "Point", "coordinates": [ -0.199346, 51.459898 ] } },
{ "type": "Feature", "properties": { "name": "The Woodpecker", "add": "42-44 Battersea High Street, London", "postcode": "SW11 3HX", "owner": "Pulse Venues", "lat": 51.473993, "long": -0.173966, "city": "Wandsworth", "notes": "New pub", "website": "", "history": "" }, "geometry": { "type": "Point", "coordinates": [ -0.173966, 51.473993 ] } },
{ "type": "Feature", "properties": { "name": "Rose and Crown", "add": "Rose And Crown, 140 Tooting Bec Road, London", "postcode": "SW17 8BH", "owner": "Greene King", "lat": 51.432809, "long": -0.154051, "city": "Wandsworth", "notes": "", "website": "", "history": "" }, "geometry": { "type": "Point", "coordinates": [ -0.154051, 51.432809 ] } },
{ "type": "Feature", "properties": { "name": "Spotted Horse", "add": "122 Putney High Street, London", "postcode": "SW15 1RG", "owner": "Young's", "lat": 51.46268, "long": -0.216513, "city": "Wandsworth", "notes": "", "website": "", "history": "" }, "geometry": { "type": "Point", "coordinates": [ -0.216513, 51.46268 ] } },
{ "type": "Feature", "properties": { "name": "Tap 13 Tooting", "add": "Unit E5 Broadway Market, 29 Tooting High Street, London", "postcode": "SW17 0RJ", "owner": "", "lat": 51.42835, "long": -0.166533, "city": "Wandsworth", "notes": "", "website": "", "history": "" }, "geometry": { "type": "Point", "coordinates": [ -0.166533, 51.42835 ] } },
{ "type": "Feature", "properties": { "name": "The Alma Tavern", "add": "The Alma, 499 Old York Road, London", "postcode": "SW18 1TF", "owner": "Young's", "lat": 51.460627, "long": -0.187686, "city": "Wandsworth", "notes": "", "website": "", "history": "" }, "geometry": { "type": "Point", "coordinates": [ -0.187686, 51.460627 ] } },
{ "type": "Feature", "properties": { "name": "The Anchor", "add": "61 Holgate Avenue, London", "postcode": "SW11 2AT", "owner": "Stonegate", "lat": 51.465262, "long": -0.179253, "city": "Wandsworth", "notes": "", "website": "", "history": "" }, "geometry": { "type": "Point", "coordinates": [ -0.179253, 51.465262 ] } },
{ "type": "Feature", "properties": { "name": "The Angel", "add": "The Angel Public House, 11 Roehampton High Street, London", "postcode": "SW15 4HL", "owner": "Unity Social", "lat": 51.45029, "long": -0.240008, "city": "Wandsworth", "notes": "", "website": "", "history": "" }, "geometry": { "type": "Point", "coordinates": [ -0.240008, 51.45029 ] } },
{ "type": "Feature", "properties": { "name": "The Antelope", "add": "The Antelope Public House, 76 Mitcham Road, London", "postcode": "SW17 9NG", "owner": "Urban Pubs and Bars", "lat": 51.426062, "long": -0.165985, "city": "Wandsworth", "notes": "", "website": "", "history": "" }, "geometry": { "type": "Point", "coordinates": [ -0.165985, 51.426062 ] } },
{ "type": "Feature", "properties": { "name": "The Arab Boy", "add": "289 Upper Richmond Road, London", "postcode": "SW15 6SP", "owner": "Market Taverns", "lat": 51.462781, "long": -0.226681, "city": "Wandsworth", "notes": "", "website": "", "history": "" }, "geometry": { "type": "Point", "coordinates": [ -0.226681, 51.462781 ] } },
{ "type": "Feature", "properties": { "name": "The Bank", "add": "31 Northcote Road, London", "postcode": "SW11 1NJ", "owner": "Fuller Smith & Turner", "lat": 51.459759, "long": -0.166474, "city": "Wandsworth", "notes": "", "website": "", "history": "" }, "geometry": { "type": "Point", "coordinates": [ -0.166474, 51.459759 ] } },
{ "type": "Feature", "properties": { "name": "The Bedford", "add": "77 Bedford Hill, London", "postcode": "SW12 9HD", "owner": "Stonegate", "lat": 51.442707, "long": -0.149235, "city": "Wandsworth", "notes": "", "website": "", "history": "" }, "geometry": { "type": "Point", "coordinates": [ -0.149235, 51.442707 ] } },
{ "type": "Feature", "properties": { "name": "The Bolingbroke", "add": "174 Northcote Road, London", "postcode": "SW11 6RE", "owner": "Stonegate", "lat": 51.453857, "long": -0.164132, "city": "Wandsworth", "notes": "", "website": "", "history": "" }, "geometry": { "type": "Point", "coordinates": [ -0.164132, 51.453857 ] } },
{ "type": "Feature", "properties": { "name": "The Castle", "add": "38 Tooting High Street, London", "postcode": "SW17 0RG", "owner": "Languard Investments", "lat": 51.428646, "long": -0.167876, "city": "Wandsworth", "notes": "https://www.london.camra.org.uk/viewnode.php?id=8316", "website": "", "history": "" }, "geometry": { "type": "Point", "coordinates": [ -0.167876, 51.428646 ] } },
{ "type": "Feature", "properties": { "name": "The Cats Back", "add": "Public House The Cats Back, 86-88 Point Pleasant, London", "postcode": "SW18 1PP", "owner": "Harvey's Brewery", "lat": 51.461824, "long": -0.199443, "city": "Wandsworth", "notes": "", "website": "", "history": "" }, "geometry": { "type": "Point", "coordinates": [ -0.199443, 51.461824 ] } },
{ "type": "Feature", "properties": { "name": "The Coat And Badge", "add": "8 Lacy Road, London", "postcode": "SW15 1NL", "owner": "Mitchells & Butlers", "lat": 51.464496, "long": -0.216629, "city": "Wandsworth", "notes": "", "website": "", "history": "" }, "geometry": { "type": "Point", "coordinates": [ -0.216629, 51.464496 ] } },
{ "type": "Feature", "properties": { "name": "The Corner Pin", "add": "10 Summerstown, London", "postcode": "SW17 0AY", "owner": "Independent", "lat": 51.43319, "long": -0.185937, "city": "Merton", "notes": "", "website": "", "history": "" }, "geometry": { "type": "Point", "coordinates": [ -0.185937, 51.43319 ] } },
{ "type": "Feature", "properties": { "name": "The Crown", "add": "Public House The Crown Hotel, 102 Lavender Hill, London", "postcode": "SW11 5RD", "owner": "Stonegate", "lat": 51.465723, "long": -0.156005, "city": "Wandsworth", "notes": "", "website": "", "history": "" }, "geometry": { "type": "Point", "coordinates": [ -0.156005, 51.465723 ] } },
{ "type": "Feature", "properties": { "name": "The Devonshire", "add": "39 Balham High Road, London", "postcode": "SW12 9AN", "owner": "Young's", "lat": 51.446875, "long": -0.148884, "city": "Wandsworth", "notes": "", "website": "", "history": "" }, "geometry": { "type": "Point", "coordinates": [ -0.148884, 51.446875 ] } },
{ "type": "Feature", "properties": { "name": "The Earl Spencer", "add": "260-262 Merton Road, London", "postcode": "SW18 5JL", "owner": "Stonegate", "lat": 51.448228, "long": -0.199503, "city": "Wandsworth", "notes": "", "website": "", "history": "" }, "geometry": { "type": "Point", "coordinates": [ -0.199503, 51.448228 ] } },
{ "type": "Feature", "properties": { "name": "The East Hill", "add": "21 Alma Road, London", "postcode": "SW18 1AA", "owner": "Young's", "lat": 51.458681, "long": -0.185747, "city": "Wandsworth", "notes": "", "website": "", "history": "" }, "geometry": { "type": "Point", "coordinates": [ -0.185747, 51.458681 ] } },
{ "type": "Feature", "properties": { "name": "The Falcon PH", "add": "The Falcon Public House, 2 St Johns Hill, London", "postcode": "SW11 1RU", "owner": "Mitchells & Butlers", "lat": 51.46383, "long": -0.168086, "city": "Wandsworth", "notes": "", "website": "", "history": "" }, "geometry": { "type": "Point", "coordinates": [ -0.168086, 51.46383 ] } },
{ "type": "Feature", "properties": { "name": "The Flag", "add": "101-103 Culvert Road, London", "postcode": "SW11 5AU", "owner": "Independent", "lat": 51.471093, "long": -0.157624, "city": "Wandsworth", "notes": "", "website": "", "history": "" }, "geometry": { "type": "Point", "coordinates": [ -0.157624, 51.471093 ] } },
{ "type": "Feature", "properties": { "name": "The Four Thieves", "add": "51 Lavender Gardens, London", "postcode": "SW11 1DJ", "owner": "Laine pub company", "lat": 51.464086, "long": -0.162685, "city": "Wandsworth", "notes": "", "website": "", "history": "" }, "geometry": { "type": "Point", "coordinates": [ -0.162685, 51.464086 ] } },
{ "type": "Feature", "properties": { "name": "The Fox And Hounds Public House", "add": "167 Upper Richmond Road, London", "postcode": "SW15 6SE", "owner": "Dunnings", "lat": 51.460897, "long": -0.217676, "city": "Wandsworth", "notes": "", "website": "", "history": "" }, "geometry": { "type": "Point", "coordinates": [ -0.217676, 51.460897 ] } },
{ "type": "Feature", "properties": { "name": "The Furzedown", "add": "118 Mitcham Lane, London", "postcode": "SW16 6NR", "owner": "Independent", "lat": 51.424391, "long": -0.141992, "city": "Wandsworth", "notes": "", "website": "", "history": "" }, "geometry": { "type": "Point", "coordinates": [ -0.141992, 51.424391 ] } },
{ "type": "Feature", "properties": { "name": "The Gardeners Arms", "add": "268 Merton Road, London", "postcode": "SW18 5JL", "owner": "Punch Pubs & Co (Punch Taverns)", "lat": 51.448011, "long": -0.199425, "city": "Wandsworth", "notes": "", "website": "", "history": "" }, "geometry": { "type": "Point", "coordinates": [ -0.199425, 51.448011 ] } },
{ "type": "Feature", "properties": { "name": "The Garratt Tavern", "add": "89 Garratt Lane, London", "postcode": "SW18 4DW", "owner": "Heineken", "lat": 51.452935, "long": -0.190998, "city": "Wandsworth", "notes": "", "website": "", "history": "" }, "geometry": { "type": "Point", "coordinates": [ -0.190998, 51.452935 ] } },
{ "type": "Feature", "properties": { "name": "The Goat Pub", "add": "Public House, 66 Battersea Rise, London", "postcode": "SW11 1EQ", "owner": "Mitchells & Butlers", "lat": 51.46098, "long": -0.166423, "city": "Wandsworth", "notes": "", "website": "", "history": "" }, "geometry": { "type": "Point", "coordinates": [ -0.166423, 51.46098 ] } },
{ "type": "Feature", "properties": { "name": "The Grove PH", "add": "39 Oldridge Road, London", "postcode": "SW12 8PN", "owner": "Young's", "lat": 51.448401, "long": -0.151048, "city": "Wandsworth", "notes": "", "website": "", "history": "" }, "geometry": { "type": "Point", "coordinates": [ -0.151048, 51.448401 ] } },
{ "type": "Feature", "properties": { "name": "The Half Moon Inn", "add": "93 Lower Richmond Road, London", "postcode": "SW15 1EU", "owner": "Young's", "lat": 51.467292, "long": -0.220105, "city": "Wandsworth", "notes": "", "website": "", "history": "" }, "geometry": { "type": "Point", "coordinates": [ -0.220105, 51.467292 ] } },
{ "type": "Feature", "properties": { "name": "The Hop Pole", "add": "64 Putney Bridge Road, London", "postcode": "SW18 1HR", "owner": "Independent", "lat": 51.459278, "long": -0.198233, "city": "Wandsworth", "notes": "", "website": "", "history": "" }, "geometry": { "type": "Point", "coordinates": [ -0.198233, 51.459278 ] } },
{ "type": "Feature", "properties": { "name": "The Hope", "add": "1 Bellevue Road, London", "postcode": "SW17 7EG", "owner": "Mitchells & Butlers", "lat": 51.446055, "long": -0.16551, "city": "Wandsworth", "notes": "", "website": "", "history": "" }, "geometry": { "type": "Point", "coordinates": [ -0.16551, 51.446055 ] } },
{ "type": "Feature", "properties": { "name": "The Jolly Gardeners", "add": "Jolly Gardener, 61-63 Lacy Road, London", "postcode": "SW15 1NR", "owner": "Mitchells & Butlers", "lat": 51.464596, "long": -0.218468, "city": "Wandsworth", "notes": "", "website": "", "history": "" }, "geometry": { "type": "Point", "coordinates": [ -0.218468, 51.464596 ] } },
{ "type": "Feature", "properties": { "name": "The Kings Head", "add": "84 Upper Tooting Road, London", "postcode": "SW17 7PB", "owner": "Greene King", "lat": 51.433851, "long": -0.163165, "city": "Wandsworth", "notes": "", "website": "", "history": "" }, "geometry": { "type": "Point", "coordinates": [ -0.163165, 51.433851 ] } },
{ "type": "Feature", "properties": { "name": "The Latchmere", "add": "503 Battersea Park Road, London", "postcode": "SW11 3BW", "owner": "Stonegate", "lat": 51.471999, "long": -0.165507, "city": "Wandsworth", "notes": "", "website": "", "history": "" }, "geometry": { "type": "Point", "coordinates": [ -0.165507, 51.471999 ] } },
{ "type": "Feature", "properties": { "name": "The Leather Bottle", "add": "538 Garratt Lane, London", "postcode": "SW17 0NY", "owner": "Greene King", "lat": 51.436869, "long": -0.187173, "city": "Wandsworth", "notes": "", "website": "", "history": "" }, "geometry": { "type": "Point", "coordinates": [ -0.187173, 51.436869 ] } },
{ "type": "Feature", "properties": { "name": "The Lighthouse", "add": "441 Battersea Park Road, London", "postcode": "SW11 4LR", "owner": "City Pub Group", "lat": 51.47264, "long": -0.162598, "city": "Wandsworth", "notes": "", "website": "", "history": "" }, "geometry": { "type": "Point", "coordinates": [ -0.162598, 51.47264 ] } },
{ "type": "Feature", "properties": { "name": "The London and South Western", "add": "276-288 Lavender Hill, London", "postcode": "SW11 1LJ", "owner": "JD Wetherspoon", "lat": 51.464097, "long": -0.167585, "city": "Wandsworth", "notes": "", "website": "", "history": "" }, "geometry": { "type": "Point", "coordinates": [ -0.167585, 51.464097 ] } },
{ "type": "Feature", "properties": { "name": "The Magic Garden", "add": "231 Battersea Park Road, London", "postcode": "SW11 4LG", "owner": "Independent", "lat": 51.475311, "long": -0.150787, "city": "Wandsworth", "notes": "", "website": "", "history": "" }, "geometry": { "type": "Point", "coordinates": [ -0.150787, 51.475311 ] } },
{ "type": "Feature", "properties": { "name": "The Nightingale PH", "add": "The Nightingale, 97 Nightingale Lane, London", "postcode": "SW12 8NX", "owner": "Young's", "lat": 51.450018, "long": -0.157838, "city": "Wandsworth", "notes": "", "website": "", "history": "" }, "geometry": { "type": "Point", "coordinates": [ -0.157838, 51.450018 ] } },
{ "type": "Feature", "properties": { "name": "The Northcote", "add": "2 Northcote Road, London", "postcode": "SW11 1NT", "owner": "Young's", "lat": 51.460693, "long": -0.1672, "city": "Wandsworth", "notes": "", "website": "", "history": "" }, "geometry": { "type": "Point", "coordinates": [ -0.1672, 51.460693 ] } },
{ "type": "Feature", "properties": { "name": "The Old Sergeant", "add": "104 Garratt Lane, London", "postcode": "SW18 4DJ", "owner": "Grumpy pub company", "lat": 51.451526, "long": -0.190579, "city": "Wandsworth", "notes": "", "website": "", "history": "" }, "geometry": { "type": "Point", "coordinates": [ -0.190579, 51.451526 ] } },
{ "type": "Feature", "properties": { "name": "The Park Tavern", "add": "212 Merton Road, London", "postcode": "SW18 5SW", "owner": "Independent", "lat": 51.450564, "long": -0.199411, "city": "Wandsworth", "notes": "", "website": "", "history": "" }, "geometry": { "type": "Point", "coordinates": [ -0.199411, 51.450564 ] } },
{ "type": "Feature", "properties": { "name": "The Railway", "add": "202 Upper Richmond Road, London", "postcode": "SW15 6TD", "owner": "Urban Pubs and Bars", "lat": 51.461126, "long": -0.217336, "city": "Wandsworth", "notes": "", "website": "", "history": "" }, "geometry": { "type": "Point", "coordinates": [ -0.217336, 51.461126 ] } },
{ "type": "Feature", "properties": { "name": "The Ramble Inn", "add": "223 Mitcham Road, London", "postcode": "SW17 9JG", "owner": "Independent", "lat": 51.422661, "long": -0.160158, "city": "Wandsworth", "notes": "", "website": "", "history": "" }, "geometry": { "type": "Point", "coordinates": [ -0.160158, 51.422661 ] } },
{ "type": "Feature", "properties": { "name": "The Regent", "add": "21 Chestnut Grove, London", "postcode": "SW12 8JB", "owner": "Livelyhood", "lat": 51.444093, "long": -0.153904, "city": "Wandsworth", "notes": "", "website": "", "history": "" }, "geometry": { "type": "Point", "coordinates": [ -0.153904, 51.444093 ] } },
{ "type": "Feature", "properties": { "name": "The Roundhouse Public House", "add": "2 North Side Wandsworth Common, London", "postcode": "SW18 2SS", "owner": "City Pub Group", "lat": 51.459058, "long": -0.174115, "city": "Wandsworth", "notes": "", "website": "", "history": "" }, "geometry": { "type": "Point", "coordinates": [ -0.174115, 51.459058 ] } },
{ "type": "Feature", "properties": { "name": "The Royal Standard", "add": "1 Ballantine Street, London", "postcode": "SW18 1AL", "owner": "Independent", "lat": 51.460886, "long": -0.186678, "city": "Wandsworth", "notes": "", "website": "", "history": "" }, "geometry": { "type": "Point", "coordinates": [ -0.186678, 51.460886 ] } },
{ "type": "Feature", "properties": { "name": "The Selkirk", "add": "60 Selkirk Road, London", "postcode": "SW17 0ES", "owner": "Indapubs", "lat": 51.430299, "long": -0.169464, "city": "Wandsworth", "notes": "", "website": "", "history": "" }, "geometry": { "type": "Point", "coordinates": [ -0.169464, 51.430299 ] } },
{ "type": "Feature", "properties": { "name": "The Ship Inn", "add": "The Ship, 41 Jews Row, London", "postcode": "SW18 1TB", "owner": "Young's", "lat": 51.463493, "long": -0.188134, "city": "Wandsworth", "notes": "", "website": "", "history": "" }, "geometry": { "type": "Point", "coordinates": [ -0.188134, 51.463493 ] } },
{ "type": "Feature", "properties": { "name": "The Telegraph PH", "add": "The Telegraph, Telegraph Road, London", "postcode": "SW15 3TU", "owner": "Brunning & Price", "lat": 51.448792, "long": -0.226444, "city": "Wandsworth", "notes": "", "website": "", "history": "" }, "geometry": { "type": "Point", "coordinates": [ -0.226444, 51.448792 ] } },
{ "type": "Feature", "properties": { "name": "The Tir Na Nog", "add": "Public House, 107 Garratt Lane, London", "postcode": "SW18 4DW", "owner": "Independent", "lat": 51.452583, "long": -0.190926, "city": "Wandsworth", "notes": "", "website": "", "history": "" }, "geometry": { "type": "Point", "coordinates": [ -0.190926, 51.452583 ] } },
{ "type": "Feature", "properties": { "name": "The Union Arms", "add": "109 Battersea Bridge Road, London", "postcode": "SW11 3AT", "owner": "Stonegate", "lat": 51.477043, "long": -0.168329, "city": "Wandsworth", "notes": "", "website": "", "history": "" }, "geometry": { "type": "Point", "coordinates": [ -0.168329, 51.477043 ] } },
{ "type": "Feature", "properties": { "name": "The Victoria", "add": "166 Queenstown Road, London", "postcode": "SW8 3QH", "owner": "Heineken", "lat": 51.47286, "long": -0.148193, "city": "Wandsworth", "notes": "", "website": "", "history": "" }, "geometry": { "type": "Point", "coordinates": [ -0.148193, 51.47286 ] } },
{ "type": "Feature", "properties": { "name": "The Wandle of Earlsfield", "add": "The Wandle, 332 Garratt Lane, London", "postcode": "SW18 4EJ", "owner": "Greene King", "lat": 51.44281, "long": -0.189298, "city": "Wandsworth", "notes": "", "website": "", "history": "" }, "geometry": { "type": "Point", "coordinates": [ -0.189298, 51.44281 ] } },
{ "type": "Feature", "properties": { "name": "The Waterfront", "add": "Unit C Public House, Baltimore House, Juniper Drive, London", "postcode": "SW18 1TS", "owner": "Young's", "lat": 51.464225, "long": -0.185412, "city": "Wandsworth", "notes": "", "website": "", "history": "" }, "geometry": { "type": "Point", "coordinates": [ -0.185412, 51.464225 ] } },
{ "type": "Feature", "properties": { "name": "The Woodman", "add": "60 Battersea High Street, London", "postcode": "SW11 3HX", "owner": "Independent", "lat": 51.473568, "long": -0.173839, "city": "Wandsworth", "notes": "", "website": "", "history": "" }, "geometry": { "type": "Point", "coordinates": [ -0.173839, 51.473568 ] } },
{ "type": "Feature", "properties": { "name": "Trafalgar Arms", "add": "148-156 Tooting High Street, London", "postcode": "SW17 0RT", "owner": "Young's", "lat": 51.425173, "long": -0.171216, "city": "Wandsworth", "notes": "", "website": "", "history": "" }, "geometry": { "type": "Point", "coordinates": [ -0.171216, 51.425173 ] } }
]
}
