{
  "type": "FeatureCollection",
  "features": [
    {
      "type": "Feature",
      "properties": {
        "name": "Abbey Arms",
        "add": "Abbey Arms 31 Wilton Road, Abbey Wood, Greenwich",
        "postcode": "SE2 9RH",
        "owner": "Independent",
        "status": "open",
        "lat": 51.490698,
        "long": 0.121072,
        "city": "Greenwich",
        "notes": ""
      },
      "geometry": {
        "type": "Point",
        "coordinates": [
          0.121072,
          51.490698
        ]
      }
    },
    {
      "type": "Feature",
      "properties": {
        "name": "Anchor & Hope",
        "add": "The Anchor And Hope Riverside, Charlton, Greenwich",
        "postcode": "SE7 7SS",
        "owner": "Greene King",
        "status": "closed",
        "lat": 51.493619,
        "long": 0.028753,
        "city": "Greenwich",
        "notes": ""
      },
      "geometry": {
        "type": "Point",
        "coordinates": [
          0.028753,
          51.493619
        ]
      }
    },
    {
      "type": "Feature",
      "properties": {
        "name": "Angerstein Hotel",
        "add": "The Angerstein 108 Woolwich Road, Greenwich",
        "postcode": "SE10 0LE",
        "owner": "SMS Taverns Ltd",
        "status": "open",
        "lat": 51.486313,
        "long": 0.017477,
        "city": "Greenwich",
        "notes": ""
      },
      "geometry": {
        "type": "Point",
        "coordinates": [
          0.017477,
          51.486313
        ]
      }
    },
    {
      "type": "Feature",
      "properties": {
        "name": "Anglesea Arms",
        "add": "Anglesea Arms 91 Woolwich New Road, Woolwich, Greenwich",
        "postcode": "SE18 6EF",
        "owner": "Unknown",
        "status": "closed",
        "lat": 51.488686,
        "long": 0.06712,
        "city": "Greenwich",
        "notes": ""
      },
      "geometry": {
        "type": "Point",
        "coordinates": [
          0.06712,
          51.488686
        ]
      }
    },
    {
      "type": "Feature",
      "properties": {
        "name": "Ashburnham Arms",
        "add": "Ashburnham Arms 25 Ashburnham Grove, Greenwich",
        "postcode": "SE10 8UH",
        "owner": "Shepherd Neame",
        "status": "open",
        "lat": 51.475765,
        "long": -0.015217,
        "city": "Greenwich",
        "notes": ""
      },
      "geometry": {
        "type": "Point",
        "coordinates": [
          -0.015217,
          51.475765
        ]
      }
    },
    {
      "type": "Feature",
      "properties": {
        "name": "Belushi's",
        "add": "Belushis 189 Greenwich High Road, Greenwich",
        "postcode": "SE10 8JA",
        "owner": "Interpub",
        "status": "closed",
        "lat": 51.478025,
        "long": -0.012758,
        "city": "Greenwich",
        "notes": ""
      },
      "geometry": {
        "type": "Point",
        "coordinates": [
          -0.012758,
          51.478025
        ]
      }
    },
    {
      "type": "Feature",
      "properties": {
        "name": "Berry & Barrel Limited",
        "add": "18 Well Hall Parade, Eltham, Greenwich",
        "postcode": "SE9 6SP",
        "owner": "Independent",
        "status": "open",
        "lat": 51.456664,
        "long": 0.051177,
        "city": "Greenwich",
        "notes": ""
      },
      "geometry": {
        "type": "Point",
        "coordinates": [
          0.051177,
          51.456664
        ]
      }
    },
    {
      "type": "Feature",
      "properties": {
        "name": "Black Boy Public House",
        "add": "Black Boy Southspring, Avery Hill, Greenwich",
        "postcode": "DA15 8EA",
        "owner": "Town Centre Inns",
        "status": "open",
        "lat": 51.445011,
        "long": 0.084751,
        "city": "Greenwich",
        "notes": ""
      },
      "geometry": {
        "type": "Point",
        "coordinates": [
          0.084751,
          51.445011
        ]
      }
    },
    {
      "type": "Feature",
      "properties": {
        "name": "Blackheath & Newbridge",
        "add": "22 Charlton Road, Charlton, Greenwich",
        "postcode": "SE3 7HG",
        "owner": "Blackheath Newbridge Social Club Limited",
        "status": "open",
        "lat": 51.47812,
        "long": 0.022199,
        "city": "Greenwich",
        "notes": ""
      },
      "geometry": {
        "type": "Point",
        "coordinates": [
          0.022199,
          51.47812
        ]
      }
    },
    {
      "type": "Feature",
      "properties": {
        "name": "British Oak",
        "add": "British Oak 109 Old Dover Road, Blackheath, Greenwich",
        "postcode": "SE3 8SU",
        "owner": "Independent",
        "status": "open",
        "lat": 51.476218,
        "long": 0.026132,
        "city": "Greenwich",
        "notes": ""
      },
      "geometry": {
        "type": "Point",
        "coordinates": [
          0.026132,
          51.476218
        ]
      }
    },
    {
      "type": "Feature",
      "properties": {
        "name": "Bull Tavern",
        "add": "The Bull 14 Vincent Road, Woolwich, Greenwich",
        "postcode": "SE18 6RF",
        "owner": "Unknown",
        "status": "closed",
        "lat": 51.489518,
        "long": 0.069376,
        "city": "Greenwich",
        "notes": ""
      },
      "geometry": {
        "type": "Point",
        "coordinates": [
          0.069376,
          51.489518
        ]
      }
    },
    {
      "type": "Feature",
      "properties": {
        "name": "Crofton Albion Sports & Social Club",
        "add": "Crofton Albion Sports And Social Club Weigall Road, Kidbrooke, Greenwich",
        "postcode": "SE12 8HF",
        "owner": "Crofton Albion Sports & Social Club",
        "status": "open",
        "lat": 51.457489,
        "long": 0.018571,
        "city": "Greenwich",
        "notes": ""
      },
      "geometry": {
        "type": "Point",
        "coordinates": [
          0.018571,
          51.457489
        ]
      }
    },
    {
      "type": "Feature",
      "properties": {
        "name": "Crown",
        "add": "The Crown 176 Trafalgar Road, Greenwich",
        "postcode": "SE10 9TZ",
        "owner": "Stonegate",
        "status": "open",
        "lat": 51.484949,
        "long": 0.004742,
        "city": "Greenwich",
        "notes": ""
      },
      "geometry": {
        "type": "Point",
        "coordinates": [
          0.004742,
          51.484949
        ]
      }
    },
    {
      "type": "Feature",
      "properties": {
        "name": "Cutty Sark Tavern",
        "add": "The Cutty Sark 4 - 6 Ballast Quay, Greenwich",
        "postcode": "SE10 9PD",
        "owner": "Young's",
        "status": "open",
        "lat": 51.486315,
        "long": -0.000363,
        "city": "Greenwich",
        "notes": ""
      },
      "geometry": {
        "type": "Point",
        "coordinates": [
          -0.000363,
          51.486315
        ]
      }
    },
    {
      "type": "Feature",
      "properties": {
        "name": "Dial Arch",
        "add": "Dial Arch No 1 Street, Woolwich, Greenwich",
        "postcode": "SE18 6GH",
        "owner": "Young's",
        "status": "open",
        "lat": 51.49258,
        "long": 0.069735,
        "city": "Greenwich",
        "notes": ""
      },
      "geometry": {
        "type": "Point",
        "coordinates": [
          0.069735,
          51.49258
        ]
      }
    },
    {
      "type": "Feature",
      "properties": {
        "name": "Elephant and Castle",
        "add": "Elephant And Castle 18 Greens End, Woolwich, Greenwich",
        "postcode": "SE18 6JY",
        "owner": "Independent",
        "status": "open",
        "lat": 51.490822,
        "long": 0.068848,
        "city": "Greenwich",
        "notes": ""
      },
      "geometry": {
        "type": "Point",
        "coordinates": [
          0.068848,
          51.490822
        ]
      }
    },
    {
      "type": "Feature",
      "properties": {
        "name": "Eltham GPO",
        "add": "4 Passey Place, Eltham, Greenwich",
        "postcode": "SE9 5DQ",
        "owner": "Portobello Brewery",
        "status": "open",
        "lat": 51.450324,
        "long": 0.053728,
        "city": "Greenwich",
        "notes": ""
      },
      "geometry": {
        "type": "Point",
        "coordinates": [
          0.053728,
          51.450324
        ]
      }
    },
    {
      "type": "Feature",
      "properties": {
        "name": "Eltham Hill Club & Instit",
        "add": "Eltham Hill Club And Institute 85 Eltham Road, Eltham, Greenwich",
        "postcode": "SE9 5SU",
        "owner": "Greenwich Council",
        "status": "closed",
        "lat": 51.451672,
        "long": 0.046611,
        "city": "Greenwich",
        "notes": ""
      },
      "geometry": {
        "type": "Point",
        "coordinates": [
          0.046611,
          51.451672
        ]
      }
    },
    {
      "type": "Feature",
      "properties": {
        "name": "Enderby house",
        "add": "Enderby House 23 Telegraph Avenue, Greenwich",
        "postcode": "SE10 0TH",
        "owner": "Young's",
        "status": "open",
        "lat": 51.490689,
        "long": 0.002794,
        "city": "Greenwich",
        "notes": ""
      },
      "geometry": {
        "type": "Point",
        "coordinates": [
          0.002794,
          51.490689
        ]
      }
    },
    {
      "type": "Feature",
      "properties": {
        "name": "Farmhouse Public House",
        "add": "The Farmhouse 52 Jason Walk, Eltham, Greenwich",
        "postcode": "SE9 3DH",
        "owner": "Heineken",
        "status": "open",
        "lat": 51.42679,
        "long": 0.058801,
        "city": "Greenwich",
        "notes": ""
      },
      "geometry": {
        "type": "Point",
        "coordinates": [
          0.058801,
          51.42679
        ]
      }
    },
    {
      "type": "Feature",
      "properties": {
        "name": "Fox & Hounds",
        "add": "Fox And Hounds 57 Plumstead Common Road, Plumstead, Greenwich",
        "postcode": "SE18 3AS",
        "owner": "Redhouse pubs group",
        "status": "open",
        "lat": 51.482319,
        "long": 0.069731,
        "city": "Greenwich",
        "notes": ""
      },
      "geometry": {
        "type": "Point",
        "coordinates": [
          0.069731,
          51.482319
        ]
      }
    },
    {
      "type": "Feature",
      "properties": {
        "name": "Gate Clock PH (JD Wetherspoon PLC)",
        "add": "The Gate Clock Crescent Arcade, Greenwich",
        "postcode": "SE10 9EJ",
        "owner": "JD Wetherspoon",
        "status": "open",
        "lat": 51.48165869,
        "long": -0.011112771,
        "city": "Greenwich",
        "notes": ""
      },
      "geometry": {
        "type": "Point",
        "coordinates": [
          -0.011112771,
          51.48165869
        ]
      }
    },
    {
      "type": "Feature",
      "properties": {
        "name": "George & Dragon",
        "add": "George And Dragon 2 Blackheath Hill, Greenwich",
        "postcode": "SE10 8DE",
        "owner": "Independent",
        "status": "open",
        "lat": 51.472886,
        "long": -0.015169,
        "city": "Greenwich",
        "notes": ""
      },
      "geometry": {
        "type": "Point",
        "coordinates": [
          -0.015169,
          51.472886
        ]
      }
    },
    {
      "type": "Feature",
      "properties": {
        "name": "Great Harry (Wetherspoons)",
        "add": "The Great Harry 7 - 9 Wellington Street, Woolwich, Greenwich",
        "postcode": "SE18 6PQ",
        "owner": "JD Wetherspoon",
        "status": "open",
        "lat": 51.489888,
        "long": 0.066701,
        "city": "Greenwich",
        "notes": ""
      },
      "geometry": {
        "type": "Point",
        "coordinates": [
          0.066701,
          51.489888
        ]
      }
    },
    {
      "type": "Feature",
      "properties": {
        "name": "Guildford Arms",
        "add": "Guildford Arms 55 Guildford Grove, Greenwich",
        "postcode": "SE10 8JY",
        "owner": "Independent",
        "status": "open",
        "lat": 51.474358,
        "long": -0.014868,
        "city": "Greenwich",
        "notes": ""
      },
      "geometry": {
        "type": "Point",
        "coordinates": [
          -0.014868,
          51.474358
        ]
      }
    },
    {
      "type": "Feature",
      "properties": {
        "name": "Hardys Free house",
        "add": "Hardys 92 Trafalgar Road, Greenwich",
        "postcode": "SE10 9UW",
        "owner": "London Taverns Ltd",
        "status": "closed",
        "lat": 51.483918,
        "long": 0.001286,
        "city": "Greenwich",
        "notes": ""
      },
      "geometry": {
        "type": "Point",
        "coordinates": [
          0.001286,
          51.483918
        ]
      }
    },
    {
      "type": "Feature",
      "properties": {
        "name": "Hungry Horse (Fox Under the Hill)",
        "add": "Fox Under The Hill 286 Shooters Hill Road, Blackheath, Greenwich",
        "postcode": "SE18 4LT",
        "owner": "Greene King",
        "status": "open",
        "lat": 51.47377,
        "long": 0.039704,
        "city": "Greenwich",
        "notes": ""
      },
      "geometry": {
        "type": "Point",
        "coordinates": [
          0.039704,
          51.47377
        ]
      }
    },
    {
      "type": "Feature",
      "properties": {
        "name": "King's Arms",
        "add": "Kings Arms 16 King William Walk, Greenwich",
        "postcode": "SE10 9JH",
        "owner": "Greene King",
        "status": "open",
        "lat": 51.480914,
        "long": -0.008095,
        "city": "Greenwich",
        "notes": ""
      },
      "geometry": {
        "type": "Point",
        "coordinates": [
          -0.008095,
          51.480914
        ]
      }
    },
    {
      "type": "Feature",
      "properties": {
        "name": "Mitre",
        "add": "The Mitre 291 Greenwich High Road, Greenwich",
        "postcode": "SE10 8NA",
        "owner": "Mitchells & Butlers",
        "status": "open",
        "lat": 51.480174,
        "long": -0.009753,
        "city": "Greenwich",
        "notes": ""
      },
      "geometry": {
        "type": "Point",
        "coordinates": [
          -0.009753,
          51.480174
        ]
      }
    },
    {
      "type": "Feature",
      "properties": {
        "name": "North Pole Bar & Restaurant",
        "add": "131 Greenwich High Road, Greenwich",
        "postcode": "SE10 8JA",
        "owner": "Antarctic Ltd",
        "status": "open",
        "lat": 51.476888,
        "long": -0.016781,
        "city": "Greenwich",
        "notes": ""
      },
      "geometry": {
        "type": "Point",
        "coordinates": [
          -0.016781,
          51.476888
        ]
      }
    },
    {
      "type": "Feature",
      "properties": {
        "name": "Old Brewery",
        "add": "The Old Brewery Old Royal Naval College King William Walk, Greenwich",
        "postcode": "SE10 9LW",
        "owner": "Young's",
        "status": "open",
        "lat": 51.482426,
        "long": -0.00607,
        "city": "Greenwich",
        "notes": ""
      },
      "geometry": {
        "type": "Point",
        "coordinates": [
          -0.00607,
          51.482426
        ]
      }
    },
    {
      "type": "Feature",
      "properties": {
        "name": "Park Tavern",
        "add": "Park Tavern 45 Passey Place, Eltham, Greenwich",
        "postcode": "SE9 5DA",
        "owner": "Independent",
        "status": "open",
        "lat": 51.449766,
        "long": 0.054456,
        "city": "Greenwich",
        "notes": ""
      },
      "geometry": {
        "type": "Point",
        "coordinates": [
          0.054456,
          51.449766
        ]
      }
    },
    {
      "type": "Feature",
      "properties": {
        "name": "Plume of Feathers",
        "add": "Plume Of Feathers 19 Park Vista, Greenwich",
        "postcode": "SE10 9LZ",
        "owner": "Independent",
        "status": "open",
        "lat": 51.48202881,
        "long": -0.001138129,
        "city": "Greenwich",
        "notes": ""
      },
      "geometry": {
        "type": "Point",
        "coordinates": [
          -0.001138129,
          51.48202881
        ]
      }
    },
    {
      "type": "Feature",
      "properties": {
        "name": "Plumstead Common Working Mens Club",
        "add": "Plumstead Common Working Mens Club 71 Kirkham Street, Plumstead, Greenwich",
        "postcode": "SE18 2JS",
        "owner": "Plumstead Common Working Mens Club",
        "status": "open",
        "lat": 51.479118,
        "long": 0.089345,
        "city": "Greenwich",
        "notes": ""
      },
      "geometry": {
        "type": "Point",
        "coordinates": [
          0.089345,
          51.479118
        ]
      }
    },
    {
      "type": "Feature",
      "properties": {
        "name": "Plumstead Radical Club",
        "add": "Plumstead Radical Club 83 - 88 Walmer Terrace, Plumstead, Greenwich",
        "postcode": "SE18 7DZ",
        "owner": "Plumstead Radical Club",
        "status": "open",
        "lat": 51.489311,
        "long": 0.084697,
        "city": "Greenwich",
        "notes": ""
      },
      "geometry": {
        "type": "Point",
        "coordinates": [
          0.084697,
          51.489311
        ]
      }
    },
    {
      "type": "Feature",
      "properties": {
        "name": "Prince of Greenwich",
        "add": "The Prince Albert 72 Royal Hill, Greenwich",
        "postcode": "SE10 8RT",
        "owner": "Independent",
        "status": "open",
        "lat": 51.476249,
        "long": -0.009991,
        "city": "Greenwich",
        "notes": ""
      },
      "geometry": {
        "type": "Point",
        "coordinates": [
          -0.009991,
          51.476249
        ]
      }
    },
    {
      "type": "Feature",
      "properties": {
        "name": "Richard 1",
        "add": "Richard I 52 - 54 Royal Hill, Greenwich",
        "postcode": "SE10 8RT",
        "owner": "Young's",
        "status": "open",
        "lat": 51.476584,
        "long": -0.009732,
        "city": "Greenwich",
        "notes": ""
      },
      "geometry": {
        "type": "Point",
        "coordinates": [
          -0.009732,
          51.476584
        ]
      }
    },
    {
      "type": "Feature",
      "properties": {
        "name": "Rising Sun",
        "add": "Rising Sun 189 - 191 Eltham High Street, Eltham, Greenwich",
        "postcode": "SE9 1TS",
        "owner": "Independent",
        "status": "open",
        "lat": 51.450989,
        "long": 0.058469,
        "city": "Greenwich",
        "notes": ""
      },
      "geometry": {
        "type": "Point",
        "coordinates": [
          0.058469,
          51.450989
        ]
      }
    },
    {
      "type": "Feature",
      "properties": {
        "name": "Rose of Denmark",
        "add": "Rose Of Denmark 296 Woolwich Road, Greenwich",
        "postcode": "SE7 7AL",
        "owner": "Town Centre Inns",
        "status": "open",
        "lat": 51.4873319,
        "long": 0.025744585,
        "city": "Greenwich",
        "notes": ""
      },
      "geometry": {
        "type": "Point",
        "coordinates": [
          0.025744585,
          51.4873319
        ]
      }
    },
    {
      "type": "Feature",
      "properties": {
        "name": "Roses Public House",
        "add": "Prince Albert 47 - 49 Hare Street, Woolwich, Greenwich",
        "postcode": "SE18 6NE",
        "owner": "Independent",
        "status": "open",
        "lat": 51.493202,
        "long": 0.06341,
        "city": "Greenwich",
        "notes": ""
      },
      "geometry": {
        "type": "Point",
        "coordinates": [
          0.06341,
          51.493202
        ]
      }
    },
    {
      "type": "Feature",
      "properties": {
        "name": "Royal Standard",
        "add": "Royal Standard 44 Vanbrugh Park, Blackheath, Greenwich",
        "postcode": "SE3 7JQ",
        "owner": "Mitchells & Butlers",
        "status": "open",
        "lat": 51.476948,
        "long": 0.016608,
        "city": "Greenwich",
        "notes": ""
      },
      "geometry": {
        "type": "Point",
        "coordinates": [
          0.016608,
          51.476948
        ]
      }
    },
    {
      "type": "Feature",
      "properties": {
        "name": "SALT WOOLWICH",
        "add": "15 Major Draper Street, Woolwich, Greenwich",
        "postcode": "SE18 6GD",
        "owner": "Salt London",
        "status": "open",
        "lat": 51.492376,
        "long": 0.071724,
        "city": "Greenwich",
        "notes": ""
      },
      "geometry": {
        "type": "Point",
        "coordinates": [
          0.071724,
          51.492376
        ]
      }
    },
    {
      "type": "Feature",
      "properties": {
        "name": "sourdough saloon pizza @thestarse18",
        "add": "Star Inn 158 Plumstead Common Road, Plumstead, Greenwich",
        "postcode": "SE18 2UL",
        "owner": "Independent",
        "status": "open",
        "lat": 51.480812,
        "long": 0.078506,
        "city": "Greenwich",
        "notes": ""
      },
      "geometry": {
        "type": "Point",
        "coordinates": [
          0.078506,
          51.480812
        ]
      }
    },
    {
      "type": "Feature",
      "properties": {
        "name": "Spanish Galleon",
        "add": "Spanish Galleon 48 Greenwich Church Street, Greenwich",
        "postcode": "SE10 9BL",
        "owner": "Wellman Taverns",
        "status": "open",
        "lat": 51.481698,
        "long": -0.009817,
        "city": "Greenwich",
        "notes": ""
      },
      "geometry": {
        "type": "Point",
        "coordinates": [
          -0.009817,
          51.481698
        ]
      }
    },
    {
      "type": "Feature",
      "properties": {
        "name": "Star INN",
        "add": "Star Inn 158 Plumstead Common Road, Plumstead, Greenwich",
        "postcode": "SE18 2UL",
        "owner": "Independent",
        "status": "open",
        "lat": 51.480812,
        "long": 0.078506,
        "city": "Greenwich",
        "notes": "Freehold: Stonegate"
      },
      "geometry": {
        "type": "Point",
        "coordinates": [
          0.078506,
          51.480812
        ]
      }
    },
    {
      "type": "Feature",
      "properties": {
        "name": "Star of Greenwich",
        "add": "Star And Garter 60 Old Woolwich Road, Greenwich",
        "postcode": "SE10 9NY",
        "owner": "Independent",
        "status": "closed",
        "lat": 51.484211,
        "long": -0.00049,
        "city": "Greenwich",
        "notes": ""
      },
      "geometry": {
        "type": "Point",
        "coordinates": [
          -0.00049,
          51.484211
        ]
      }
    },
    {
      "type": "Feature",
      "properties": {
        "name": "The Bankers Draft",
        "add": "80 Eltham High Street, Eltham, Greenwich",
        "postcode": "SE9 1BW",
        "owner": "SJ Leisure London Ltd",
        "status": "closed",
        "lat": 51.450582,
        "long": 0.052292,
        "city": "Greenwich",
        "notes": ""
      },
      "geometry": {
        "type": "Point",
        "coordinates": [
          0.052292,
          51.450582
        ]
      }
    },
    {
      "type": "Feature",
      "properties": {
        "name": "The Bat and Ball",
        "add": "275 Court Road, Eltham, Greenwich",
        "postcode": "SE9 4TH",
        "owner": "Hideaway Taverns Ltd",
        "status": "open",
        "lat": 51.436324,
        "long": 0.045921,
        "city": "Greenwich",
        "notes": ""
      },
      "geometry": {
        "type": "Point",
        "coordinates": [
          0.045921,
          51.436324
        ]
      }
    },
    {
      "type": "Feature",
      "properties": {
        "name": "The Beehive",
        "add": "The Beehive 365 Footscray Road, Eltham, Greenwich",
        "postcode": "SE9 2DR",
        "owner": "Gladewood Taverns",
        "status": "open",
        "lat": 51.439195,
        "long": 0.07087,
        "city": "Greenwich",
        "notes": ""
      },
      "geometry": {
        "type": "Point",
        "coordinates": [
          0.07087,
          51.439195
        ]
      }
    },
    {
      "type": "Feature",
      "properties": {
        "name": "The Birchwood P.H",
        "add": "The Birchwood Grovebury Road, Abbey Wood, Greenwich",
        "postcode": "SE2 9BB",
        "owner": "Stonegate",
        "status": "open",
        "lat": 51.497776,
        "long": 0.115078,
        "city": "Greenwich",
        "notes": ""
      },
      "geometry": {
        "type": "Point",
        "coordinates": [
          0.115078,
          51.497776
        ]
      }
    },
    {
      "type": "Feature",
      "properties": {
        "name": "The Bull Hotel",
        "add": "The Bull 151 Shooters Hill, Plumstead, Greenwich",
        "postcode": "SE18 3HP",
        "owner": "Independent",
        "status": "open",
        "lat": 51.468777,
        "long": 0.070529,
        "city": "Greenwich",
        "notes": ""
      },
      "geometry": {
        "type": "Point",
        "coordinates": [
          0.070529,
          51.468777
        ]
      }
    },
    {
      "type": "Feature",
      "properties": {
        "name": "The Castle Tavern Amma\u201a\u00c4\u00f4s Fare",
        "add": "Castle Tavern 179 Powis Street, Woolwich, Greenwich",
        "postcode": "SE18 6JL",
        "owner": "Independent",
        "status": "open",
        "lat": 51.492702,
        "long": 0.06163,
        "city": "Greenwich",
        "notes": ""
      },
      "geometry": {
        "type": "Point",
        "coordinates": [
          0.06163,
          51.492702
        ]
      }
    },
    {
      "type": "Feature",
      "properties": {
        "name": "The Coach & Horses",
        "add": "Coach And Horses 13 Greenwich Market, Greenwich",
        "postcode": "SE10 9HZ",
        "owner": "Young's",
        "status": "open",
        "lat": 51.481477,
        "long": -0.008949,
        "city": "Greenwich",
        "notes": ""
      },
      "geometry": {
        "type": "Point",
        "coordinates": [
          -0.008949,
          51.481477
        ]
      }
    },
    {
      "type": "Feature",
      "properties": {
        "name": "The Cutty Sark",
        "add": "The Cutty Sark 14 Joyce Dawson Way, Thamesmead, Greenwich",
        "postcode": "SE28 8RA",
        "owner": "Castlecrown Hotels Ltd",
        "status": "open",
        "lat": 51.507076,
        "long": 0.107037,
        "city": "Greenwich",
        "notes": ""
      },
      "geometry": {
        "type": "Point",
        "coordinates": [
          0.107037,
          51.507076
        ]
      }
    },
    {
      "type": "Feature",
      "properties": {
        "name": "The Depot",
        "add": "7 Pegler Square, Kidbrooke, Greenwich",
        "postcode": "SE3 9FW",
        "owner": "Young's",
        "status": "open",
        "lat": 51.461883,
        "long": 0.027567,
        "city": "Greenwich",
        "notes": ""
      },
      "geometry": {
        "type": "Point",
        "coordinates": [
          0.027567,
          51.461883
        ]
      }
    },
    {
      "type": "Feature",
      "properties": {
        "name": "The Draughts P.H",
        "add": "Draughts 34 Eltham High Street, Eltham, Greenwich",
        "postcode": "SE9 1BT",
        "owner": "Independent",
        "status": "open",
        "lat": 51.450971,
        "long": 0.050145,
        "city": "Greenwich",
        "notes": ""
      },
      "geometry": {
        "type": "Point",
        "coordinates": [
          0.050145,
          51.450971
        ]
      }
    },
    {
      "type": "Feature",
      "properties": {
        "name": "The Duke",
        "add": "The Duke 125 Creek Road, Deptford, Greenwich",
        "postcode": "SE8 3BU",
        "owner": "Stonegate",
        "status": "open",
        "lat": 51.481199,
        "long": -0.020412,
        "city": "Greenwich",
        "notes": ""
      },
      "geometry": {
        "type": "Point",
        "coordinates": [
          -0.020412,
          51.481199
        ]
      }
    },
    {
      "type": "Feature",
      "properties": {
        "name": "The Vanbrugh",
        "add": "The Vanbrugh Tavern 91 Colomb Street, Greenwich",
        "postcode": "SE10 9EZ",
        "owner": "ATS Hospitality Ltd",
        "status": "open",
        "lat": 51.483411,
        "long": 0.007915,
        "city": "Greenwich",
        "notes": ""
      },
      "geometry": {
        "type": "Point",
        "coordinates": [
          0.007915,
          51.483411
        ]
      }
    },
    {
      "type": "Feature",
      "properties": {
        "name": "The Earl of Chatham",
        "add": "Earl Of Chatham 15 Thomas Street, Woolwich, Greenwich",
        "postcode": "SE18 6HU",
        "owner": "Stonegate",
        "status": "open",
        "lat": 51.490306,
        "long": 0.066531,
        "city": "Greenwich",
        "notes": ""
      },
      "geometry": {
        "type": "Point",
        "coordinates": [
          0.066531,
          51.490306
        ]
      }
    },
    {
      "type": "Feature",
      "properties": {
        "name": "The George IV",
        "add": "George Iv 120 Rectory Place, Woolwich, Greenwich",
        "postcode": "SE18 5BY",
        "owner": "Stonegate",
        "status": "open",
        "lat": 51.490475,
        "long": 0.060578,
        "city": "Greenwich",
        "notes": ""
      },
      "geometry": {
        "type": "Point",
        "coordinates": [
          0.060578,
          51.490475
        ]
      }
    },
    {
      "type": "Feature",
      "properties": {
        "name": "The Gipsy Moth",
        "add": "The Gipsy Moth 60 Greenwich Church Street, Greenwich",
        "postcode": "SE10 9BL",
        "owner": "Mitchells & Butlers",
        "status": "open",
        "lat": 51.482299,
        "long": -0.009719,
        "city": "Greenwich",
        "notes": ""
      },
      "geometry": {
        "type": "Point",
        "coordinates": [
          -0.009719,
          51.482299
        ]
      }
    },
    {
      "type": "Feature",
      "properties": {
        "name": "The Graduate",
        "add": "The Graduate 107 - 109 Blackheath Road, Greenwich",
        "postcode": "SE10 8PD",
        "owner": "Independent",
        "status": "open",
        "lat": 51.473169,
        "long": -0.015402,
        "city": "Greenwich",
        "notes": ""
      },
      "geometry": {
        "type": "Point",
        "coordinates": [
          -0.015402,
          51.473169
        ]
      }
    },
    {
      "type": "Feature",
      "properties": {
        "name": "The Green Goddess",
        "add": "43A Vanbrugh Park, Blackheath, Greenwich",
        "postcode": "SE3 7AA",
        "owner": "Independent",
        "status": "open",
        "lat": 51.477126,
        "long": 0.018842,
        "city": "Greenwich",
        "notes": ""
      },
      "geometry": {
        "type": "Point",
        "coordinates": [
          0.018842,
          51.477126
        ]
      }
    },
    {
      "type": "Feature",
      "properties": {
        "name": "The Greyhound",
        "add": "The Greyhound 18 Kingsman Parade, Woolwich, Greenwich",
        "postcode": "SE18 5QE",
        "owner": "Admiral Taverns",
        "status": "open",
        "lat": 51.492603,
        "long": 0.055571,
        "city": "Greenwich",
        "notes": ""
      },
      "geometry": {
        "type": "Point",
        "coordinates": [
          0.055571,
          51.492603
        ]
      }
    },
    {
      "type": "Feature",
      "properties": {
        "name": "The Guard House",
        "add": "The Guardhouse No 1 Street, Woolwich, Greenwich",
        "postcode": "SE18 6GH",
        "owner": "Young's",
        "status": "open",
        "lat": 51.49258,
        "long": 0.069735,
        "city": "Greenwich",
        "notes": ""
      },
      "geometry": {
        "type": "Point",
        "coordinates": [
          0.069735,
          51.49258
        ]
      }
    },
    {
      "type": "Feature",
      "properties": {
        "name": "The Long Pond",
        "add": "110 Westmount Road, Eltham, Greenwich",
        "postcode": "SE9 1UT",
        "owner": "Independent",
        "status": "open",
        "lat": 51.456938,
        "long": 0.059625,
        "city": "Greenwich",
        "notes": ""
      },
      "geometry": {
        "type": "Point",
        "coordinates": [
          0.059625,
          51.456938
        ]
      }
    },
    {
      "type": "Feature",
      "properties": {
        "name": "The Morden Arms",
        "add": "Morden Arms 1 Brand Street, Greenwich",
        "postcode": "SE10 8SP",
        "owner": "Independent",
        "status": "open",
        "lat": 51.47713345,
        "long": -0.011658618,
        "city": "Greenwich",
        "notes": ""
      },
      "geometry": {
        "type": "Point",
        "coordinates": [
          -0.011658618,
          51.47713345
        ]
      }
    },
    {
      "type": "Feature",
      "properties": {
        "name": "The Old Mill",
        "add": "The Old Mill 1 Old Mill Road, Plumstead, Greenwich",
        "postcode": "SE18 1QG",
        "owner": "Independent",
        "status": "open",
        "lat": 51.481711,
        "long": 0.084096,
        "city": "Greenwich",
        "notes": ""
      },
      "geometry": {
        "type": "Point",
        "coordinates": [
          0.084096,
          51.481711
        ]
      }
    },
    {
      "type": "Feature",
      "properties": {
        "name": "The Pelton Arms",
        "add": "Pelton Arms 23 - 25 Pelton Road, Greenwich",
        "postcode": "SE10 9PQ",
        "owner": "Four Keen Inns Ltd",
        "status": "open",
        "lat": 51.486929,
        "long": 0.002539,
        "city": "Greenwich",
        "notes": ""
      },
      "geometry": {
        "type": "Point",
        "coordinates": [
          0.002539,
          51.486929
        ]
      }
    },
    {
      "type": "Feature",
      "properties": {
        "name": "The Pilot Inn",
        "add": "Pilot Inn 68 River Way, Greenwich",
        "postcode": "SE10 0BE",
        "owner": "Fuller Smith & Turner",
        "status": "open",
        "lat": 51.496212,
        "long": 0.010295,
        "city": "Greenwich",
        "notes": ""
      },
      "geometry": {
        "type": "Point",
        "coordinates": [
          0.010295,
          51.496212
        ]
      }
    },
    {
      "type": "Feature",
      "properties": {
        "name": "The Plum Tree Beer Shop",
        "add": "154 Plumstead Common Road, Plumstead, Greenwich",
        "postcode": "SE18 2UL",
        "owner": "Independent",
        "status": "closed",
        "lat": 51.480829,
        "long": 0.078661,
        "city": "Greenwich",
        "notes": ""
      },
      "geometry": {
        "type": "Point",
        "coordinates": [
          0.078661,
          51.480829
        ]
      }
    },
    {
      "type": "Feature",
      "properties": {
        "name": "The Red Lion",
        "add": "Red Lion 6 Red Lion Place, Plumstead, Greenwich",
        "postcode": "SE18 3RN",
        "owner": "Independent",
        "status": "open",
        "lat": 51.470691,
        "long": 0.060251,
        "city": "Greenwich",
        "notes": ""
      },
      "geometry": {
        "type": "Point",
        "coordinates": [
          0.060251,
          51.470691
        ]
      }
    },
    {
      "type": "Feature",
      "properties": {
        "name": "The River Ale House",
        "add": "131 Woolwich Road, Greenwich",
        "postcode": "SE10 0RJ",
        "owner": "Independent",
        "status": "open",
        "lat": 51.486287,
        "long": 0.012737,
        "city": "Greenwich",
        "notes": ""
      },
      "geometry": {
        "type": "Point",
        "coordinates": [
          0.012737,
          51.486287
        ]
      }
    },
    {
      "type": "Feature",
      "properties": {
        "name": "The Rose Inn",
        "add": "Rose Inn 2 Waverley Road, Plumstead, Greenwich",
        "postcode": "SE18 7TN",
        "owner": "Independent",
        "status": "open",
        "lat": 51.486075,
        "long": 0.078972,
        "city": "Greenwich",
        "notes": ""
      },
      "geometry": {
        "type": "Point",
        "coordinates": [
          0.078972,
          51.486075
        ]
      }
    },
    {
      "type": "Feature",
      "properties": {
        "name": "The Royal Oak",
        "add": "Royal Oak 54 Charlton Lane, Charlton, Greenwich",
        "postcode": "SE7 8LA",
        "owner": "Independent",
        "status": "open",
        "lat": 51.488347,
        "long": 0.039375,
        "city": "Greenwich",
        "notes": ""
      },
      "geometry": {
        "type": "Point",
        "coordinates": [
          0.039375,
          51.488347
        ]
      }
    },
    {
      "type": "Feature",
      "properties": {
        "name": "The Sail Loft",
        "add": "11 Victoria Parade, Greenwich",
        "postcode": "SE10 9FR",
        "owner": "Fuller Smith & Turner",
        "status": "open",
        "lat": 51.482986,
        "long": -0.014277,
        "city": "Greenwich",
        "notes": ""
      },
      "geometry": {
        "type": "Point",
        "coordinates": [
          -0.014277,
          51.482986
        ]
      }
    },
    {
      "type": "Feature",
      "properties": {
        "name": "The Ship",
        "add": "The Ship 205 Plumstead Common Road, Plumstead, Greenwich",
        "postcode": "SE18 2UJ",
        "owner": "The Ship Sports Bar Limited",
        "status": "open",
        "lat": 51.481098,
        "long": 0.080214,
        "city": "Greenwich",
        "notes": ""
      },
      "geometry": {
        "type": "Point",
        "coordinates": [
          0.080214,
          51.481098
        ]
      }
    },
    {
      "type": "Feature",
      "properties": {
        "name": "The Volunteer",
        "add": "130 - 132 Plumstead High Street, Plumstead, Greenwich",
        "postcode": "SE18 1JQ",
        "owner": "Stonegate",
        "status": "open",
        "lat": 51.487344,
        "long": 0.09208,
        "city": "Greenwich",
        "notes": ""
      },
      "geometry": {
        "type": "Point",
        "coordinates": [
          0.09208,
          51.487344
        ]
      }
    },
    {
      "type": "Feature",
      "properties": {
        "name": "The Who'd A Thought It Public House",
        "add": "The Whoda Thought It 7 Timbercroft Lane, Plumstead, Greenwich",
        "postcode": "SE18 2SB",
        "owner": "Goldenspark (Timber) Ltd",
        "status": "closed",
        "lat": 51.47913607,
        "long": 0.087463729,
        "city": "Greenwich",
        "notes": ""
      },
      "geometry": {
        "type": "Point",
        "coordinates": [
          0.087463729,
          51.47913607
        ]
      }
    },
    {
      "type": "Feature",
      "properties": {
        "name": "The Yacht",
        "add": "The Yacht Tavern 5 Crane Street, Greenwich",
        "postcode": "SE10 9NP",
        "owner": "Greene King",
        "status": "open",
        "lat": 51.484695,
        "long": -0.003879,
        "city": "Greenwich",
        "notes": ""
      },
      "geometry": {
        "type": "Point",
        "coordinates": [
          -0.003879,
          51.484695
        ]
      }
    },
    {
      "type": "Feature",
      "properties": {
        "name": "Trafalgar Tavern",
        "add": "Trafalgar Tavern Park Row, Greenwich",
        "postcode": "SE10 9NW",
        "owner": "The Trafalgar Tavern Pub Company",
        "status": "open",
        "lat": 51.484065,
        "long": -0.00355,
        "city": "Greenwich",
        "notes": ""
      },
      "geometry": {
        "type": "Point",
        "coordinates": [
          -0.00355,
          51.484065
        ]
      }
    },
    {
      "type": "Feature",
      "properties": {
        "name": "White Hart Eltham",
        "add": "White Hart 2 Eltham High Street, Eltham, Greenwich",
        "postcode": "SE9 1DA",
        "owner": "Stonegate",
        "status": "open",
        "lat": 51.451126,
        "long": 0.049463,
        "city": "Greenwich",
        "notes": ""
      },
      "geometry": {
        "type": "Point",
        "coordinates": [
          0.049463,
          51.451126
        ]
      }
    },
    {
      "type": "Feature",
      "properties": {
        "name": "Ye Olde Rose & Crown",
        "add": "Rose And Crown 1 Crooms Hill, Greenwich",
        "postcode": "SE10 8ER",
        "owner": "Greene King",
        "status": "open",
        "lat": 51.47957507,
        "long": -0.007794298,
        "city": "Greenwich",
        "notes": ""
      },
      "geometry": {
        "type": "Point",
        "coordinates": [
          -0.007794298,
          51.47957507
        ]
      }
    }
  ]
}